ZipCode	City	Places	County	State	Lat	Long
90001 	Los Angeles	"Los Angeles, Firestone Park"	Los Angeles	CA	33.972914	-118.24878
90002 	Los Angeles	"Los Angeles, August F. Haw, Watts"	Los Angeles	CA	33.948315	-118.24845
90003 	Los Angeles	Los Angeles	Los Angeles	CA	33.962714	-118.276
90004 	Los Angeles	"Los Angeles, Oakwood"	Los Angeles	CA	34.07711	-118.30755
90005 	Los Angeles	"Los Angeles, Sanford"	Los Angeles	CA	34.058911	-118.30848
90006 	Los Angeles	Los Angeles	Los Angeles	CA	34.048351	-118.2943
90007 	Los Angeles	"Los Angeles, Dockweiler"	Los Angeles	CA	34.026448	-118.2829
90008 	Los Angeles	"Los Angeles, Baldwin Hills, Leimert Park"	Los Angeles	CA	34.009754	-118.33705
90010 	Los Angeles	Los Angeles	Los Angeles	CA	34.062709	-118.31481
90011 	Los Angeles	Los Angeles	Los Angeles	CA	34.007063	-118.25868
90012 	Los Angeles	Los Angeles	Los Angeles	CA	34.061611	-118.23944
90013 	Los Angeles	Los Angeles	Los Angeles	CA	34.044662	-118.24255
90014 	Los Angeles	Los Angeles	Los Angeles	CA	34.042912	-118.25193
90015 	Los Angeles	Los Angeles	Los Angeles	CA	34.038993	-118.26516
90016 	Los Angeles	Los Angeles	Los Angeles	CA	34.029711	-118.35255
90017 	Los Angeles	Los Angeles	Los Angeles	CA	34.052561	-118.26434
90018 	Los Angeles	Los Angeles	Los Angeles	CA	34.029112	-118.3183
90019 	Los Angeles	Los Angeles	Los Angeles	CA	34.048411	-118.34015
90020 	Los Angeles	Los Angeles	Los Angeles	CA	34.06646	-118.30863
90021 	Los Angeles	Los Angeles	Los Angeles	CA	34.029313	-118.24182
90022 	Los Angeles	"Los Angeles, Commerce, East Los Angeles"	Los Angeles	CA	34.023662	-118.15581
90023 	Los Angeles	"Los Angeles, Commerce"	Los Angeles	CA	34.023039	-118.20231
90024 	Los Angeles	Los Angeles	Los Angeles	CA	34.063209	-118.43643
90025 	Los Angeles	"Los Angeles, West Los Angeles"	Los Angeles	CA	34.045006	-118.44527
90026 	Los Angeles	Los Angeles	Los Angeles	CA	34.07851	-118.26596
90027 	Los Angeles	Los Angeles	Los Angeles	CA	34.111208	-118.28842
90028 	Los Angeles	"Los Angeles, Hollywood"	Los Angeles	CA	34.098859	-118.32745
90029 	Los Angeles	Los Angeles	Los Angeles	CA	34.090259	-118.29455
90031 	Los Angeles	"Los Angeles, Lincoln Heights"	Los Angeles	CA	34.07871	-118.2161
90032 	Los Angeles	Los Angeles	Los Angeles	CA	34.08166	-118.17568
90033 	Los Angeles	Los Angeles	Los Angeles	CA	34.050411	-118.21195
90034 	Los Angeles	Los Angeles	Los Angeles	CA	34.03056	-118.39804
90035 	Los Angeles	Los Angeles	Los Angeles	CA	34.05266	-118.38531
90036 	Los Angeles	Los Angeles	Los Angeles	CA	34.07036	-118.34926
90037 	Los Angeles	Los Angeles	Los Angeles	CA	34.002063	-118.28737
90038 	Los Angeles	"Los Angeles, West Hollywood"	Los Angeles	CA	34.089459	-118.3285
90039 	Los Angeles	Los Angeles	Los Angeles	CA	34.110425	-118.25832
90040 	Los Angeles	"Los Angeles, City of Commerce,"	Los Angeles	CA	33.997492	-118.15284
90041 	Los Angeles	"Los Angeles, Eagle Rock"	Los Angeles	CA	34.137557	-118.20765
90042 	Los Angeles	"Los Angeles, Highland Park"	Los Angeles	CA	34.114558	-118.19233
90043 	Los Angeles	"Los Angeles, View Park, Windsor Hills"	Los Angeles	CA	33.987463	-118.334
90044 	Los Angeles	"Los Angeles, August F. Haw"	Los Angeles	CA	33.953814	-118.29158
90045 	Los Angeles	"Los Angeles, Westchester"	Los Angeles	CA	33.960041	-118.3949
90046 	Los Angeles	"Los Angeles, West Hollywood"	Los Angeles	CA	34.098908	-118.36241
90047 	Los Angeles	Los Angeles	Los Angeles	CA	33.958464	-118.30998
90048 	Los Angeles	"Los Angeles, West Hollywood"	Los Angeles	CA	34.073759	-118.37376
90049 	Los Angeles	Los Angeles	Los Angeles	CA	34.067409	-118.47528
90056 	Los Angeles	"Los Angeles, Baldwin Hills, Windsor Hills"	Los Angeles	CA	33.986212	-118.37099
90057 	Los Angeles	Los Angeles	Los Angeles	CA	34.061911	-118.27687
90058 	Los Angeles	"Los Angeles, Vernon"	Los Angeles	CA	34.000219	-118.22605
90059 	Los Angeles	"Los Angeles, August F. Haw"	Los Angeles	CA	33.927471	-118.24778
90061 	Los Angeles	"Los Angeles, August F. Haw"	Los Angeles	CA	33.923365	-118.27591
90062 	Los Angeles	Los Angeles	Los Angeles	CA	34.003213	-118.3078
90063 	Los Angeles	"Los Angeles, Hazard"	Los Angeles	CA	34.045161	-118.1865
90064 	Los Angeles	"Los Angeles, Rancho Park"	Los Angeles	CA	34.03457	-118.42843
90065 	Los Angeles	"Los Angeles, Glassell, Glassell Park"	Los Angeles	CA	34.107559	-118.22663
90066 	Los Angeles	Los Angeles	Los Angeles	CA	34.002011	-118.43083
90067 	Los Angeles	"Los Angeles, Century City"	Los Angeles	CA	34.056709	-118.41183
90068 	Los Angeles	"Los Angeles, Hollywood"	Los Angeles	CA	34.122058	-118.3379
90069 	West Hollywood	"West Hollywood, Los Angeles"	Los Angeles	CA	34.090975	-118.3813
90073 	Los Angeles	"Los Angeles, Veterans Admin (PO Box)"	Los Angeles	CA	33.786594	-118.298662
90077 	Los Angeles	Los Angeles	Los Angeles	CA	34.101007	-118.45077
90089 	Los Angeles	Los Angeles	Los Angeles	CA	33.786594	-118.298662
90094 	Los Angeles	"Playa Vista, Los Angeles"	Los Angeles	CA	33.786594	-118.298662
90201 	Bell	"Bell Gardens, Bell, Cudahy"	Los Angeles	CA	33.972814	-118.17385
90210 	Beverly Hills	Beverly Hills	Los Angeles	CA	34.088808	-118.40612
90211 	Beverly Hills	Beverly Hills	Los Angeles	CA	34.066009	-118.38271
90212 	Beverly Hills	Beverly Hills	Los Angeles	CA	34.060859	-118.40191
90220 	Compton	"Compton, Crystal City, Rancho Dominguez"	Los Angeles	CA	33.890566	-118.23666
90221 	Compton	"Compton, East Rancho Dominguez"	Los Angeles	CA	33.893265	-118.204
90222 	Compton	"Compton, Rosewood"	Los Angeles	CA	33.910716	-118.23624
90230 	Culver City	"Culver City, Los Angeles"	Los Angeles	CA	33.997179	-118.40145
90232 	Culver City	Culver City	Los Angeles	CA	34.021611	-118.39168
90240 	Downey	Downey	Los Angeles	CA	33.958363	-118.11987
90241 	Downey	Downey	Los Angeles	CA	33.942289	-118.12901
90242 	Downey	Downey	Los Angeles	CA	33.92018	-118.14291
90245 	El Segundo	El Segundo	Los Angeles	CA	33.921313	-118.40843
90247 	Gardena	Gardena	Los Angeles	CA	33.891265	-118.2975
90248 	Gardena	Gardena	Los Angeles	CA	33.870466	-118.28813
90249 	Gardena	Gardena	Los Angeles	CA	33.899265	-118.319
90250 	Hawthorne	"Hawthorne, Holly Park, Hollyglen"	Los Angeles	CA	33.914614	-118.35092
90254 	Hermosa Beach	Hermosa Beach	Los Angeles	CA	33.866314	-118.39968
90255 	Huntington Park	"Huntington Park, Walnut Park"	Los Angeles	CA	33.978404	-118.21773
90260 	Lawndale	Lawndale	Los Angeles	CA	33.888364	-118.35355
90262 	Lynwood	Lynwood	Los Angeles	CA	33.924642	-118.20186
90263 	Malibu	Malibu	Los Angeles	CA	34.035087	-118.70752
90265 	Malibu	Malibu	Los Angeles	CA	34.051056	-118.80768
90266 	Manhattan Beach	Manhattan Beach	Los Angeles	CA	33.88898	-118.40535
90270 	Maywood	"Maywood, Bell Gardens"	Los Angeles	CA	33.988813	-118.18642
90272 	Pacific Palisades	Pacific Palisades	Los Angeles	CA	34.050505	-118.53374
90274 	Palos Verdes Peninsula	"Palos Verdes Peninsula, Palos Verdes Estates"	Los Angeles	CA	33.784099	-118.38752
90275 	Rancho Palos Verdes	"Rancho Palos Verdes, Palos Verdes Estates, Palos Verdes Peninsula"	Los Angeles	CA	33.758216	-118.36425
90277 	Redondo Beach	Redondo Beach	Los Angeles	CA	33.828815	-118.38322
90278 	Redondo Beach	Redondo Beach	Los Angeles	CA	33.871214	-118.37177
90280 	South Gate	South Gate	Los Angeles	CA	33.944264	-118.1949
90290 	Topanga	Topanga	Los Angeles	CA	34.101447	-118.59933
90291 	Venice	"Venice, Playa Del Rey"	Los Angeles	CA	33.992411	-118.46531
90292 	Marina Del Rey	"Marina Del Rey, Venice"	Los Angeles	CA	33.976373	-118.45458
90293 	Playa Del Rey	"Playa Del Rey, Venice"	Los Angeles	CA	33.957012	-118.44167
90301 	Inglewood	Inglewood	Los Angeles	CA	33.955913	-118.35868
90302 	Inglewood	Inglewood	Los Angeles	CA	33.975263	-118.35558
90303 	Inglewood	Inglewood	Los Angeles	CA	33.934164	-118.33255
90304 	Inglewood	"Inglewood, Lennox"	Los Angeles	CA	33.936163	-118.36076
90305 	Inglewood	Inglewood	Los Angeles	CA	33.960263	-118.3252
90401 	Santa Monica	Santa Monica	Los Angeles	CA	34.01491	-118.4922
90402 	Santa Monica	Santa Monica	Los Angeles	CA	34.036759	-118.50121
90403 	Santa Monica	Santa Monica	Los Angeles	CA	34.032159	-118.49022
90404 	Santa Monica	Santa Monica	Los Angeles	CA	34.026959	-118.47432
90405 	Santa Monica	Santa Monica	Los Angeles	CA	34.009276	-118.47286
90501 	Torrance	Torrance	Los Angeles	CA	33.828766	-118.31367
90502 	Torrance	Torrance	Los Angeles	CA	33.833416	-118.29198
90503 	Torrance	Torrance	Los Angeles	CA	33.840264	-118.35587
90504 	Torrance	Torrance	Los Angeles	CA	33.870414	-118.33065
90505 	Torrance	Torrance	Los Angeles	CA	33.810848	-118.35096
90601 	Whittier	"Whittier, City Of Industry"	Los Angeles	CA	34.002333	-118.03562
90602 	Whittier	Whittier	Los Angeles	CA	33.967562	-118.03384
90603 	Whittier	Whittier	Los Angeles	CA	33.941363	-117.99477
90604 	Whittier	Whittier	Los Angeles	CA	33.929163	-118.009
90605 	Whittier	Whittier	Los Angeles	CA	33.945413	-118.03362
90606 	Whittier	"Whittier, Los Nietos"	Los Angeles	CA	33.978312	-118.06778
90620 	Buena Park	Buena Park	Orange	CA	33.841014	-118.00969
90621 	Buena Park	Buena Park	Orange	CA	33.875714	-117.99404
90623 	La Palma	"La Palma, Buena Park"	Orange	CA	33.849327	-118.04395
90630 	Cypress	Cypress	Orange	CA	33.817481	-118.0399
90631 	La Habra	"La Habra, La Habra Heights"	Orange	CA	33.934513	-117.95159
90638 	La Mirada	La Mirada	Los Angeles	CA	33.90213	-118.00966
90640 	Montebello	Montebello	Los Angeles	CA	34.014212	-118.11358
90650 	Norwalk	Norwalk	Los Angeles	CA	33.906914	-118.08339
90660 	Pico Rivera	Pico Rivera	Los Angeles	CA	33.989013	-118.08912
90670 	Santa Fe Springs	Santa Fe Springs	Los Angeles	CA	33.933551	-118.06821
90680 	Stanton	Stanton	Orange	CA	33.803565	-117.99596
90701 	Artesia	"Artesia, Cerritos"	Los Angeles	CA	33.867215	-118.08062
90703 	Cerritos	"Cerritos, Artesia"	Los Angeles	CA	33.868314	-118.06754
90704 	Avalon	Avalon (PO Box)	Los Angeles	CA	33.368642	-118.40835
90706 	Bellflower	Bellflower	Los Angeles	CA	33.888165	-118.1276
90710 	Harbor City	Harbor City	Los Angeles	CA	33.797317	-118.30065
90712 	Lakewood	Lakewood	Los Angeles	CA	33.851965	-118.1468
90713 	Lakewood	Lakewood	Los Angeles	CA	33.847265	-118.11337
90715 	Lakewood	Lakewood	Los Angeles	CA	33.840965	-118.07775
90716 	Hawaiian Gardens	"Hawaiian Gardens, Lakewood"	Los Angeles	CA	33.828565	-118.07364
90717 	Lomita	Lomita	Los Angeles	CA	33.793384	-118.31611
90720 	Los Alamitos	"Los Alamitos, Cypress, Rossmoor"	Orange	CA	33.794028	-118.07218
90723 	Paramount	Paramount	Los Angeles	CA	33.899915	-118.16231
90731 	San Pedro	San Pedro	Los Angeles	CA	33.732368	-118.28905
90732 	San Pedro	San Pedro	Los Angeles	CA	33.736718	-118.31123
90740 	Seal Beach	Seal Beach	Orange	CA	33.759283	-118.08239
90742 	Sunset Beach	Sunset Beach (PO Box)	Orange	CA	33.718167	-118.07179
90743 	Surfside	Surfside (PO Box)	Orange	CA	33.72975	-118.0863
90744 	Wilmington	Wilmington	Los Angeles	CA	33.784018	-118.25897
90745 	Carson	"Carson, Long Beach"	Los Angeles	CA	33.823765	-118.2668
90746 	Carson	"Carson, Long Beach"	Los Angeles	CA	33.857416	-118.25633
90755 	Long Beach	"Signal Hill, Long Beach"	Los Angeles	CA	33.801783	-118.168691
90802 	Long Beach	Long Beach	Los Angeles	CA	33.769018	-118.19225
90803 	Long Beach	Long Beach	Los Angeles	CA	33.761117	-118.12986
90804 	Long Beach	Long Beach	Los Angeles	CA	33.783467	-118.15182
90805 	Long Beach	"Long Beach, Lakewood"	Los Angeles	CA	33.865916	-118.18362
90806 	Long Beach	Long Beach	Los Angeles	CA	33.801767	-118.1858
90807 	Long Beach	"Long Beach, Signal Hill"	Los Angeles	CA	33.828366	-118.18235
90808 	Long Beach	Long Beach	Los Angeles	CA	33.823316	-118.11329
90810 	Long Beach	"Long Beach, Carson"	Los Angeles	CA	33.816217	-118.21495
90813 	Long Beach	Long Beach	Los Angeles	CA	33.781011	-118.19197
90814 	Long Beach	Long Beach	Los Angeles	CA	33.771167	-118.14482
90815 	Long Beach	Long Beach	Los Angeles	CA	33.795049	-118.11824
91001 	Altadena	Altadena	Los Angeles	CA	34.192102	-118.14206
91006 	Arcadia	Arcadia	Los Angeles	CA	34.134057	-118.02662
91007 	Arcadia	Arcadia	Los Angeles	CA	34.126957	-118.05216
91010 	Duarte	"Duarte, Bradbury, Irwindale"	Los Angeles	CA	34.137707	-117.96569
91011 	La Canada Flintridge	"La Canada, Flintridge"	Los Angeles	CA	34.211171	-118.19776
91016 	Monrovia	Monrovia	Los Angeles	CA	34.140806	-118.00184
91020 	Montrose	Montrose	Los Angeles	CA	34.211494	-118.23104
91024 	Sierra Madre	Sierra Madre	Los Angeles	CA	34.164806	-118.0509
91030 	South Pasadena	South Pasadena	Los Angeles	CA	34.112958	-118.15577
91040 	Sunland	"Sunland, Shadow Hills"	Los Angeles	CA	34.261221	-118.31887
91042 	Tujunga	Tujunga	Los Angeles	CA	34.256952	-118.28453
91101 	Pasadena	Pasadena	Los Angeles	CA	34.146607	-118.1391
91103 	Pasadena	Pasadena	Los Angeles	CA	34.166706	-118.159
91104 	Pasadena	Pasadena	Los Angeles	CA	34.169356	-118.12392
91105 	Pasadena	Pasadena	Los Angeles	CA	34.137857	-118.16329
91106 	Pasadena	Pasadena	Los Angeles	CA	34.142557	-118.12715
91107 	Pasadena	Pasadena	Los Angeles	CA	34.151066	-118.08974
91108 	San Marino	"San Marino, Pasadena"	Los Angeles	CA	34.122658	-118.11296
91201 	Glendale	Glendale	Los Angeles	CA	34.17013	-118.29158
91202 	Glendale	Glendale	Los Angeles	CA	34.166567	-118.26994
91203 	Glendale	Glendale	Los Angeles	CA	34.152757	-118.2658
91204 	Glendale	Glendale	Los Angeles	CA	34.135259	-118.25948
91205 	Glendale	Glendale	Los Angeles	CA	34.138514	-118.243
91206 	Glendale	Glendale	Los Angeles	CA	34.156674	-118.22937
91207 	Glendale	Glendale	Los Angeles	CA	34.165373	-118.24532
91208 	Glendale	Glendale	Los Angeles	CA	34.189605	-118.22857
91210 	Glendale	Glendale	Los Angeles	CA	33.786594	-118.298662
91214 	La Crescenta	"La Crescenta, Glendale"	Los Angeles	CA	34.232003	-118.24753
91301 	Agoura Hills	"Agoura Hills, Agoura, Calabasas, Calabasas Hills"	Los Angeles	CA	34.139536	-118.7607
91302 	Calabasas	"Calabasas, Hidden Hills, Monte Nido, Woodland Hills"	Los Angeles	CA	34.133513	-118.66464
91303 	Canoga Park	"Canoga Park, Woodland Hills"	Los Angeles	CA	34.198204	-118.60206
91304 	Canoga Park	"Canoga Park, Box Canyon, West Hills"	Los Angeles	CA	34.218654	-118.62538
91306 	Winnetka	"Winnetka, Canoga Park"	Los Angeles	CA	34.209407	-118.57735
91307 	West Hills	"West Hills, Bell Canyon, Canoga Park"	Los Angeles	CA	34.197737	-118.64797
91311 	Chatsworth	Chatsworth	Los Angeles	CA	34.259052	-118.59426
91316 	Encino	"Encino, Van Nuys"	Los Angeles	CA	34.168753	-118.51636
91320 	Newbury Park	"Newbury Park, Thousand Oaks"	Ventura	CA	34.175038	-118.93956
91321 	Newhall	"Newhall, Santa Clarita"	Los Angeles	CA	34.377782	-118.51489
91324 	Northridge	Northridge	Los Angeles	CA	34.240353	-118.55038
91325 	Northridge	Northridge	Los Angeles	CA	34.235055	-118.51766
91326 	Northridge	"Porter Ranch, Northridge"	Los Angeles	CA	34.276154	-118.54581
91330 	Northridge	Northridge	Los Angeles	CA	33.786594	-118.298662
91331 	Pacoima	"Pacoima, Arleta, Hansen Hills"	Los Angeles	CA	34.254751	-118.42406
91335 	Reseda	"Reseda, Tarzana"	Los Angeles	CA	34.200104	-118.54099
91340 	San Fernando	San Fernando	Los Angeles	CA	34.284935	-118.43821
91342 	Sylmar	"Sylmar, Kagel Canyon, Lake View Terrace"	Los Angeles	CA	34.307877	-118.42904
91343 	North Hills	"North Hills, Northridge, Sepulveda"	Los Angeles	CA	34.239503	-118.48224
91344 	Granada Hills	"Granada Hills, San Fernando"	Los Angeles	CA	34.277648	-118.50047
91345 	Mission Hills	"Mission Hills, San Fernando"	Los Angeles	CA	34.264635	-118.45961
91350 	Santa Clarita	"Santa Clarita, Agua Dulce, Saugus"	Los Angeles	CA	34.481172	-118.42821
91351 	Canyon Country	"Canyon Country, Santa Clarita"	Los Angeles	CA	34.424794	-118.44513
91352 	Sun Valley	Sun Valley	Los Angeles	CA	34.224089	-118.37563
91354 	Valencia	"Valencia, Santa Clarita"	Los Angeles	CA	34.445313	-118.55252
91355 	Valencia	"Valencia, Santa Clarita"	Los Angeles	CA	34.406519	-118.56214
91356 	Tarzana	Tarzana	Los Angeles	CA	34.164255	-118.54472
91360 	Thousand Oaks	Thousand Oaks	Ventura	CA	34.208837	-118.87348
91361 	Westlake Village	"Westlake Village, Hidden Valley, Lake Sherwood, Thousand Oaks"	Ventura	CA	34.14348	-118.85608
91362 	Thousand Oaks	"Thousand Oaks, Westlake Village"	Ventura	CA	34.190804	-118.83704
91364 	Woodland Hills	Woodland Hills	Los Angeles	CA	34.158214	-118.60061
91367 	Woodland Hills	Woodland Hills	Los Angeles	CA	34.176238	-118.61992
91377 	Oak Park	"Oak Park, Agoura Hills"	Ventura	CA	34.182875	-118.76893
91381 	Stevenson Ranch	"Stevenson Ranch, Newhall, Santa Clarita"	Los Angeles	CA	34.384663	-118.58704
91384 	Castaic	"Castaic, Santa Clarita, Val Verde"	Los Angeles	CA	34.478797	-118.65255
91387 	Santa Clarita	"Canyon Country, Santa Clarita"	Los Angeles	CA	34.421537	-118.419181
91390 	Santa Clarita	"Santa Clarita, Agua Dulce, Canyon Country"	Los Angeles	CA	34.490004	-118.300826
91401 	Van Nuys	"Van Nuys, Sherman Oaks, Valley Glen"	Los Angeles	CA	34.176505	-118.43308
91402 	Panorama City	"Panorama City, Van Nuys"	Los Angeles	CA	34.223753	-118.44322
91403 	Sherman Oaks	"Sherman Oaks, Van Nuys"	Los Angeles	CA	34.152513	-118.46396
91405 	Van Nuys	"Van Nuys, Valley Glen"	Los Angeles	CA	34.199704	-118.44724
91406 	Van Nuys	"Van Nuys, Lake Balboa"	Los Angeles	CA	34.201491	-118.49376
91411 	Van Nuys	"Van Nuys, Sherman Oaks"	Los Angeles	CA	34.178305	-118.45858
91423 	Sherman Oaks	"Sherman Oaks, Van Nuys"	Los Angeles	CA	34.153628	-118.43222
91436 	Encino	"Encino, Van Nuys"	Los Angeles	CA	34.155625	-118.48925
91501 	Burbank	Burbank	Los Angeles	CA	34.186755	-118.30153
91502 	Burbank	Burbank	Los Angeles	CA	34.177606	-118.30954
91504 	Burbank	Burbank	Los Angeles	CA	34.201254	-118.32993
91505 	Burbank	Burbank	Los Angeles	CA	34.166906	-118.34366
91506 	Burbank	Burbank	Los Angeles	CA	34.169663	-118.32364
91601 	North Hollywood	"North Hollywood, Toluca Terrace"	Los Angeles	CA	34.168206	-118.37246
91602 	North Hollywood	"North Hollywood, Studio City, Toluca Lake"	Los Angeles	CA	34.152476	-118.36841
91604 	Studio City	"Studio City, North Hollywood"	Los Angeles	CA	34.143856	-118.39429
91605 	North Hollywood	"North Hollywood, N Hollywood"	Los Angeles	CA	34.208142	-118.4011
91606 	North Hollywood	"North Hollywood, Valley Glen"	Los Angeles	CA	34.185698	-118.38836
91607 	Valley Village	"Valley Village, North Hollywood, Sherman Village"	Los Angeles	CA	34.165706	-118.39986
91701 	Alta Loma	"Rancho Cucamonga, Alta Loma"	San Bernardino	CA	34.131659	-117.5924
91702 	Azusa	"Azusa, Irwindale"	Los Angeles	CA	34.128907	-117.90309
91706 	Baldwin Park	"Baldwin Park, Irwindale"	Los Angeles	CA	34.087108	-117.96966
91708 	Chino	Chino	San Bernardino	CA	34.839964	-115.967051
91709 	Chino Hills	Chino Hills	San Bernardino	CA	33.975267	-117.72305
91710 	Chino	"Chino, Montclair, Ontario"	San Bernardino	CA	34.015963	-117.68737
91711 	Claremont	Claremont	Los Angeles	CA	34.110009	-117.71973
91722 	Covina	Covina	Los Angeles	CA	34.097708	-117.90698
91723 	Covina	Covina	Los Angeles	CA	34.085809	-117.88694
91724 	Covina	Covina	Los Angeles	CA	34.088771	-117.85817
91730 	Rancho Cucamonga	Rancho Cucamonga	San Bernardino	CA	34.104555	-117.58734
91731 	El Monte	El Monte	Los Angeles	CA	34.076642	-118.03942
91732 	El Monte	"El Monte, City Of Industry"	Los Angeles	CA	34.070659	-118.01383
91733 	South El Monte	"South El Monte, El Monte"	Los Angeles	CA	34.05051	-118.04834
91737 	Alta Loma	"Rancho Cucamonga, Alta Loma"	San Bernardino	CA	34.147849	-117.57847
91739 	Rancho Cucamonga	"Rancho Cucamonga, Etiwanda"	San Bernardino	CA	34.127819	-117.5246
91740 	Glendora	Glendora	Los Angeles	CA	34.119245	-117.8548
91741 	Glendora	Glendora	Los Angeles	CA	34.140207	-117.85704
91744 	La Puente	"La Puente, City Of Industry"	Los Angeles	CA	34.029561	-117.93975
91745 	Hacienda Heights	"Hacienda Heights, City Of Industry"	Los Angeles	CA	34.000578	-117.96943
91746 	La Puente	"La Puente, Bassett, City Of Industry"	Los Angeles	CA	34.046889	-117.98464
91748 	Rowland Heights	"Rowland Heights, City Of Industry, La Puente"	Los Angeles	CA	33.985012	-117.89705
91750 	La Verne	La Verne	Los Angeles	CA	34.117047	-117.77097
91752 	Mira Loma	"Mira Loma, Eastvale"	Riverside	CA	34.001846	-117.52759
91754 	Monterey Park	Monterey Park	Los Angeles	CA	34.048207	-118.14161
91755 	Monterey Park	Monterey Park	Los Angeles	CA	34.05471	-118.11823
91759 	Mt Baldy	Mt Baldy (PO Box)	San Bernardino	CA	34.231581	-117.66106
91761 	Ontario	Ontario	San Bernardino	CA	34.036085	-117.6086
91762 	Ontario	"Ontario, Montclair"	San Bernardino	CA	34.057561	-117.66563
91763 	Montclair	Montclair	San Bernardino	CA	34.07041	-117.69938
91764 	Ontario	Ontario	San Bernardino	CA	34.077327	-117.6222
91765 	Diamond Bar	"Diamond Bar, Pomona"	Los Angeles	CA	34.004172	-117.81673
91766 	Pomona	"Pomona, Phillips Ranch"	Los Angeles	CA	34.045584	-117.75305
91767 	Pomona	Pomona	Los Angeles	CA	34.080143	-117.73861
91768 	Pomona	Pomona	Los Angeles	CA	34.06521	-117.77932
91770 	Rosemead	Rosemead	Los Angeles	CA	34.066143	-118.08475
91773 	San Dimas	San Dimas	Los Angeles	CA	34.103341	-117.81814
91775 	San Gabriel	San Gabriel	Los Angeles	CA	34.114041	-118.09035
91776 	San Gabriel	San Gabriel	Los Angeles	CA	34.089059	-118.0951
91780 	Temple City	Temple City	Los Angeles	CA	34.101608	-118.05606
91784 	Upland	Upland	San Bernardino	CA	34.138575	-117.66356
91786 	Upland	Upland	San Bernardino	CA	34.101659	-117.65776
91789 	Walnut	"Walnut, City Of Industry, Diamond Bar"	Los Angeles	CA	34.018361	-117.85438
91790 	West Covina	West Covina	Los Angeles	CA	34.068059	-117.93835
91791 	West Covina	West Covina	Los Angeles	CA	34.063645	-117.89743
91792 	West Covina	West Covina	Los Angeles	CA	34.020711	-117.89932
91801 	Alhambra	Alhambra	Los Angeles	CA	34.090409	-118.127
91803 	Alhambra	Alhambra	Los Angeles	CA	34.072959	-118.1462
91901 	Alpine	Alpine	San Diego	CA	32.823102	-116.73864
91902 	Bonita	Bonita	San Diego	CA	32.663803	-117.02456
91905 	Boulevard	Boulevard	San Diego	CA	32.672239	-116.31497
91906 	Campo	Campo	San Diego	CA	32.664307	-116.46513
91910 	Chula Vista	Chula Vista	San Diego	CA	32.638654	-117.06686
91911 	Chula Vista	Chula Vista	San Diego	CA	32.608799	-117.0607
91913 	Chula Vista	Chula Vista	San Diego	CA	32.642486	-116.98973
91914 	Chula Vista	Chula Vista	San Diego	CA	32.662563	-116.95413
91915 	Chula Vista	Chula Vista	San Diego	CA	32.638072	-116.95195
91916 	Descanso	Descanso	San Diego	CA	32.890384	-116.62459
91917 	Dulzura	Dulzura	San Diego	CA	32.616539	-116.71187
91931 	Guatay	Guatay (PO Box)	San Diego	CA	32.852086	-116.55559
91932 	Imperial Beach	Imperial Beach	San Diego	CA	32.579555	-117.11708
91934 	Jacumba	Jacumba	San Diego	CA	32.624424	-116.17025
91935 	Jamul	Jamul	San Diego	CA	32.718186	-116.82606
91941 	La Mesa	La Mesa	San Diego	CA	32.761801	-117.01273
91942 	La Mesa	La Mesa	San Diego	CA	32.785	-117.0186
91945 	Lemon Grove	Lemon Grove	San Diego	CA	32.733451	-117.0337
91950 	National City	National City	San Diego	CA	32.670903	-117.09272
91962 	Pine Valley	Pine Valley	San Diego	CA	32.773317	-116.49139
91963 	Potrero	Potrero	San Diego	CA	32.620782	-116.60671
91977 	Spring Valley	Spring Valley	San Diego	CA	32.721145	-116.99612
91978 	Spring Valley	Spring Valley	San Diego	CA	32.732539	-116.95091
92003 	Bonsall	Bonsall	San Diego	CA	33.289265	-117.20011
92004 	Borrego Springs	Borrego Springs	San Diego	CA	33.184028	-116.26597
92007 	Cardiff By The Sea	Cardiff By The Sea	San Diego	CA	33.026742	-117.27816
92008 	Carlsbad	Carlsbad	San Diego	CA	33.158137	-117.32646
92009 	Carlsbad	"Carlsbad, La Costa"	San Diego	CA	33.097841	-117.26744
92010 	Carlsbad	Carlsbad	San Diego	CA	33.15688193	-117.2846992
92011 	Carlsbad	"Carlsbad, La Costa"	San Diego	CA	33.10723226	-117.2942511
92014 	Del Mar	Del Mar	San Diego	CA	32.961812	-117.25967
92019 	El Cajon	El Cajon	San Diego	CA	32.788736	-116.90487
92020 	El Cajon	El Cajon	San Diego	CA	32.7991	-116.97334
92021 	El Cajon	El Cajon	San Diego	CA	32.8201	-116.91234
92024 	Encinitas	Encinitas	San Diego	CA	33.053092	-117.26855
92025 	Escondido	Escondido	San Diego	CA	33.106862	-117.07077
92026 	Escondido	Escondido	San Diego	CA	33.181543	-117.11136
92027 	Escondido	Escondido	San Diego	CA	33.142706	-117.03049
92028 	Fallbrook	Fallbrook	San Diego	CA	33.380359	-117.20605
92029 	Escondido	Escondido	San Diego	CA	33.087868	-117.11558
92036 	Julian	Julian	San Diego	CA	33.02757	-116.53109
92037 	La Jolla	La Jolla	San Diego	CA	32.838761	-117.26159
92040 	Lakeside	Lakeside	San Diego	CA	32.873849	-116.90477
92054 	Oceanside	"Oceanside, Camp Pendleton"	San Diego	CA	33.202463	-117.36077
92055 	Camp Pendleton	"Camp Pendleton, Oceanside"	San Diego	CA	33.016928	-116.846046
92056 	Oceanside	Oceanside	San Diego	CA	33.195354	-117.28232
92057 	Oceanside	Oceanside	San Diego	CA	33.240926	-117.29851
92058 	Oceanside	Oceanside	San Diego	CA	33.016928	-116.846046
92059 	Pala	Pala	San Diego	CA	33.369249	-117.07236
92061 	Pauma Valley	"Pauma Valley, Pala"	San Diego	CA	33.311881	-116.96499
92064 	Poway	Poway	San Diego	CA	32.973645	-117.03701
92065 	Ramona	Ramona	San Diego	CA	33.035844	-116.8513
92067 	Rancho Santa Fe	"Rancho Santa Fe, Rcho Santa Fe (PO Box)"	San Diego	CA	33.016492	-117.20264
92069 	San Marcos	San Marcos	San Diego	CA	33.144908	-117.17128
92070 	Santa Ysabel	Santa Ysabel	San Diego	CA	33.166768	-116.71061
92071 	Santee	Santee	San Diego	CA	32.84681	-116.98983
92075 	Solana Beach	Solana Beach	San Diego	CA	32.997543	-117.26087
92078 	San Marcos	San Marcos	San Diego	CA	33.122029	-117.15605
92081 	Vista	Vista	San Diego	CA	33.192	-117.236
92082 	Valley Center	Valley Center	San Diego	CA	33.261748	-117.01027
92083 	Vista	Vista	San Diego	CA	33.179587	-117.24461
92084 	Vista	Vista	San Diego	CA	33.213309	-117.21474
92086 	Warner Springs	Warner Springs	San Diego	CA	33.337152	-116.69355
92091 	Rancho Santa Fe	Rancho Santa Fe	San Diego	CA	32.993541	-117.21311
92101 	San Diego	San Diego	San Diego	CA	32.719601	-117.16246
92102 	San Diego	San Diego	San Diego	CA	32.714992	-117.12537
92103 	San Diego	San Diego	San Diego	CA	32.746018	-117.16715
92104 	San Diego	San Diego	San Diego	CA	32.742892	-117.12774
92105 	San Diego	San Diego	San Diego	CA	32.741256	-117.0951
92106 	San Diego	San Diego	San Diego	CA	32.7259	-117.23079
92107 	San Diego	San Diego	San Diego	CA	32.7409	-117.24434
92108 	San Diego	San Diego	San Diego	CA	32.7736	-117.13785
92109 	San Diego	San Diego	San Diego	CA	32.791246	-117.24343
92110 	San Diego	San Diego	San Diego	CA	32.766482	-117.20077
92111 	San Diego	San Diego	San Diego	CA	32.804972	-117.16871
92113 	San Diego	San Diego	San Diego	CA	32.697402	-117.12001
92114 	San Diego	San Diego	San Diego	CA	32.706954	-117.0542
92115 	San Diego	San Diego	San Diego	CA	32.7603	-117.07031
92116 	San Diego	San Diego	San Diego	CA	32.76235	-117.12246
92117 	San Diego	San Diego	San Diego	CA	32.823865	-117.19966
92118 	Coronado	"Coronado, San Diego"	San Diego	CA	32.682727	-117.17441
92119 	San Diego	San Diego	San Diego	CA	32.80225	-117.02431
92120 	San Diego	San Diego	San Diego	CA	32.794449	-117.07221
92121 	San Diego	San Diego	San Diego	CA	32.899996	-117.20722
92122 	San Diego	San Diego	San Diego	CA	32.856447	-117.21143
92123 	San Diego	San Diego	San Diego	CA	32.803799	-117.13595
92124 	San Diego	San Diego	San Diego	CA	32.822815	-117.09844
92126 	San Diego	San Diego	San Diego	CA	32.914346	-117.14116
92127 	San Diego	San Diego	San Diego	CA	33.022384	-117.10694
92128 	San Diego	San Diego	San Diego	CA	32.998855	-117.07054
92129 	San Diego	San Diego	San Diego	CA	32.961014	-117.1251
92130 	San Diego	San Diego	San Diego	CA	32.946776	-117.21918
92131 	San Diego	San Diego	San Diego	CA	32.918035	-117.08438
92135 	San Diego	"San Diego, Nas North Island"	San Diego	CA	33.016928	-116.846046
92139 	San Diego	San Diego	San Diego	CA	32.677286	-117.05241
92140 	San Diego	San Diego	San Diego	CA	32.74344	-117.200412
92145 	San Diego	San Diego	San Diego	CA	32.889139	-117.100486
92154 	San Diego	San Diego	San Diego	CA	32.574398	-117.05633
92155 	San Diego	San Diego	San Diego	CA	32.671602	-117.165665
92173 	San Ysidro	"San Ysidro, San Diego"	San Diego	CA	32.556264	-117.05057
92201 	Indio	"Indio, Chiriaco Summit"	Riverside	CA	33.715271	-116.235
92203 	Indio	"Indio, Bermuda Dunes"	Riverside	CA	33.75307	-116.24688
92210 	Indian Wells	"Indian Wells, Palm Desert"	Riverside	CA	33.70129	-116.34148
92211 	Palm Desert	Palm Desert	Riverside	CA	33.759409	-116.32317
92220 	Banning	Banning	Riverside	CA	33.920803	-116.87897
92223 	Beaumont	"Beaumont, Cherry Valley"	Riverside	CA	33.945265	-116.9759
92225 	Blythe	"Blythe, Ripley"	Riverside	CA	33.628333	-114.61905
92227 	Brawley	Brawley	Imperial	CA	32.98975	-115.50475
92230 	Cabazon	Cabazon	Riverside	CA	33.911404	-116.76834
92231 	Calexico	Calexico	Imperial	CA	32.683491	-115.48277
92233 	Calipatria	Calipatria	Imperial	CA	33.131764	-115.51208
92234 	Cathedral City	Cathedral City	Riverside	CA	33.807761	-116.46473
92236 	Coachella	Coachella	Riverside	CA	33.679872	-116.17656
92239 	Desert Center	"Desert Center, Eagle Mountain, Eagle Mtn (PO Box)"	Riverside	CA	33.830029	-115.40124
92240 	Desert Hot Springs	Desert Hot Springs	Riverside	CA	33.952303	-116.50804
92241 	Desert Hot Springs	Desert Hot Springs	Riverside	CA	33.904371	-116.38634
92242 	Earp	"Earp, Big River"	San Bernardino	CA	34.137179	-114.35823
92243 	El Centro	El Centro	Imperial	CA	32.783359	-115.57746
92249 	Heber	Heber	Imperial	CA	32.726931	-115.51245
92250 	Holtville	Holtville	Imperial	CA	32.800259	-115.35369
92251 	Imperial	Imperial	Imperial	CA	32.853471	-115.58942
92252 	Joshua Tree	Joshua Tree	San Bernardino	CA	34.175926	-116.29137
92253 	La Quinta	La Quinta	Riverside	CA	33.675373	-116.29649
92254 	Mecca	Mecca	Riverside	CA	33.543836	-115.99404
92256 	Morongo Valley	Morongo Valley	San Bernardino	CA	34.066626	-116.55951
92257 	Niland	Niland	Imperial	CA	33.330929	-115.61583
92258 	North Palm Springs	"North Palm Springs, N Palm Spgs, N Palm Springs, No Palm Spr... (PO Box)"	Riverside	CA	33.921502	-116.56703
92259 	Ocotillo	Ocotillo (PO Box)	Imperial	CA	32.722049	-115.95998
92260 	Palm Desert	Palm Desert	Riverside	CA	33.715672	-116.38496
92262 	Palm Springs	Palm Springs	Riverside	CA	33.842984	-116.54344
92264 	Palm Springs	Palm Springs	Riverside	CA	33.798669	-116.51887
92268 	Pioneertown	Pioneertown (PO Box)	San Bernardino	CA	34.203249	-116.56565
92270 	Rancho Mirage	Rancho Mirage	Riverside	CA	33.762944	-116.42249
92273 	Seeley	Seeley (PO Box)	Imperial	CA	32.792631	-115.69162
92274 	Thermal	Thermal	Imperial	CA	33.466287	-116.0688
92275 	Salton City	"Salton City, Thermal (PO Box)"	Imperial	CA	33.289347	-115.9565
92276 	Thousand Palms	Thousand Palms	Riverside	CA	33.821318	-116.38023
92277 	Twentynine Palms	Twentynine Palms	San Bernardino	CA	34.165696	-116.03343
92278 	Twentynine Palms	Twentynine Palms	San Bernardino	CA	34.360235	-116.20964
92281 	Westmorland	Westmorland	Imperial	CA	33.037061	-115.6194
92282 	White Water	"Whitewater, Cabazon"	Riverside	CA	33.941487	-116.64506
92283 	Winterhaven	"Winterhaven, Felicity"	Imperial	CA	32.786759	-114.62591
92284 	Yucca Valley	Yucca Valley	San Bernardino	CA	34.161795	-116.41246
92285 	Landers	"Landers, Johnson Valley, Yucca Valley"	San Bernardino	CA	34.31039	-116.45012
92301 	Adelanto	"Adelanto, El Mirage"	San Bernardino	CA	34.641695	-117.50803
92305 	Angelus Oaks	Angelus Oaks	San Bernardino	CA	34.172474	-116.87593
92307 	Apple Valley	Apple Valley	San Bernardino	CA	34.538622	-117.17729
92308 	Apple Valley	"Apple Valley, Jess Ranch"	San Bernardino	CA	34.447959	-117.19222
92309 	Baker	"Baker, Kelso"	San Bernardino	CA	35.27295	-116.06504
92310 	Fort Irwin	"Fort Irwin, Barstow"	San Bernardino	CA	35.262763	-116.69452
92311 	Barstow	Barstow	San Bernardino	CA	34.894181	-117.03636
92313 	Grand Terrace	Grand Terrace	San Bernardino	CA	34.030714	-117.31174
92314 	Big Bear City	Big Bear City	San Bernardino	CA	34.255388	-116.85442
92315 	Big Bear Lake	Big Bear Lake	San Bernardino	CA	34.241295	-116.90328
92316 	Bloomington	Bloomington	San Bernardino	CA	34.064062	-117.39432
92320 	Calimesa	Calimesa	Riverside	CA	33.984551	-117.03767
92321 	Cedar Glen	Cedar Glen (PO Box)	San Bernardino	CA	34.254199	-117.17563
92322 	Cedarpines Park	"Cedarpines Park, Cedarpines Pk (PO Box)"	San Bernardino	CA	34.839964	-115.967051
92324 	Colton	"Colton, Grand Terrace"	San Bernardino	CA	34.061931	-117.31995
92325 	Crestline	Crestline (PO Box)	San Bernardino	CA	34.242567	-117.28654
92327 	Daggett	Daggett	San Bernardino	CA	34.866837	-116.86379
92328 	Death Valley	Death Valley	Inyo	CA	35.945641	-117.20296
92333 	Fawnskin	Fawnskin (PO Box)	San Bernardino	CA	34.268344	-116.93842
92335 	Fontana	Fontana	San Bernardino	CA	34.088911	-117.45213
92336 	Fontana	Fontana	San Bernardino	CA	34.125147	-117.45818
92337 	Fontana	Fontana	San Bernardino	CA	34.046992	-117.481
92339 	Forest Falls	Forest Falls	San Bernardino	CA	34.087114	-116.923
92341 	Green Valley Lake	"Green Valley Lake, Green Vly Lk (PO Box)"	San Bernardino	CA	34.241477	-117.07449
92342 	Helendale	Helendale	San Bernardino	CA	34.761696	-117.33444
92344 	Hesperia	"Hesperia, Oak Hills"	San Bernardino	CA	34.4239	-117.4075
92345 	Hesperia	Hesperia	San Bernardino	CA	34.399992	-117.33999
92346 	Highland	Highland	San Bernardino	CA	34.12716	-117.20073
92347 	Hinkley	Hinkley	San Bernardino	CA	34.956205	-117.21994
92352 	Lake Arrowhead	"Lake Arrowhead, Lk Arrowhead (PO Box)"	San Bernardino	CA	34.25629	-117.19132
92354 	Loma Linda	Loma Linda	San Bernardino	CA	34.050764	-117.25327
92356 	Lucerne Valley	"Lucerne Valley, Lucerne Vly"	San Bernardino	CA	34.481229	-116.90601
92358 	Lytle Creek	Lytle Creek	San Bernardino	CA	34.229288	-117.52082
92359 	Mentone	Mentone	San Bernardino	CA	34.083512	-117.09688
92363 	Needles	Needles	San Bernardino	CA	34.808718	-114.62664
92365 	Newberry Springs	Newberry Springs	San Bernardino	CA	34.896333	-116.63644
92368 	Oro Grande	Oro Grande	San Bernardino	CA	34.634147	-117.30614
92371 	Phelan	Phelan	San Bernardino	CA	34.453465	-117.53392
92372 	Pinon Hills	Pinon Hills	San Bernardino	CA	34.44654	-117.63411
92373 	Redlands	Redlands	San Bernardino	CA	34.034714	-117.17305
92374 	Redlands	Redlands	San Bernardino	CA	34.063264	-117.16888
92376 	Rialto	Rialto	San Bernardino	CA	34.109511	-117.37617
92377 	Rialto	Rialto	San Bernardino	CA	34.151243	-117.39873
92382 	Running Springs	"Running Springs, Arrowbear Lake, Arrowbear Lk, Running Sp... (PO Box)"	San Bernardino	CA	34.205626	-117.10499
92385 	Skyforest	Skyforest (PO Box)	San Bernardino	CA	34.839964	-115.967051
92386 	Sugarloaf	"Sugarloaf, Big Bear City (PO Box)"	San Bernardino	CA	34.244448	-116.82962
92391 	Twin Peaks	Twin Peaks (PO Box)	San Bernardino	CA	34.839964	-115.967051
92392 	Victorville	Victorville	San Bernardino	CA	34.489466	-117.35321
92394 	Victorville	"Victorville, George Afb"	San Bernardino	CA	34.55965	-117.35773
92395 	Victorville	"Victorville, Spring Valley Lake"	San Bernardino	CA	34.486	-117.366
92397 	Wrightwood	Wrightwood	San Bernardino	CA	34.35876	-117.62752
92398 	Yermo	Yermo (PO Box)	San Bernardino	CA	34.909491	-116.84058
92399 	Yucaipa	"Yucaipa, Oak Glen"	San Bernardino	CA	34.033564	-117.03776
92401 	San Bernardino	San Bernardino	San Bernardino	CA	34.105079	-117.29075
92404 	San Bernardino	San Bernardino	San Bernardino	CA	34.14856	-117.26298
92405 	San Bernardino	San Bernardino	San Bernardino	CA	34.141659	-117.29722
92407 	San Bernardino	"San Bernardino, Arrowhead Farms, Devore"	San Bernardino	CA	34.198189	-117.35826
92408 	San Bernardino	San Bernardino	San Bernardino	CA	34.080662	-117.27357
92410 	San Bernardino	San Bernardino	San Bernardino	CA	34.106965	-117.2975
92411 	San Bernardino	San Bernardino	San Bernardino	CA	34.12051	-117.3176
92501 	Riverside	Riverside	Riverside	CA	33.991181	-117.37074
92503 	Riverside	Riverside	Riverside	CA	33.91355	-117.46052
92504 	Riverside	Riverside	Riverside	CA	33.926315	-117.40937
92505 	Riverside	Riverside	Riverside	CA	33.921765	-117.48812
92506 	Riverside	Riverside	Riverside	CA	33.943615	-117.37239
92507 	Riverside	Riverside	Riverside	CA	33.978965	-117.33646
92508 	Riverside	Riverside	Riverside	CA	33.890313	-117.32122
92509 	Riverside	"Riverside, Jurupa Valley"	Riverside	CA	33.998751	-117.44695
92518 	March Air Force Base	"March Air Reserve Base, Riverside"	Riverside	CA	33.891084	-117.2726
92530 	Lake Elsinore	Lake Elsinore	Riverside	CA	33.675893	-117.34946
92532 	Lake Elsinore	Lake Elsinore	Riverside	CA	33.696543	-117.3247
92536 	Aguanga	Aguanga	Riverside	CA	33.485978	-116.82004
92539 	Anza	Anza	Riverside	CA	33.55055	-116.67362
92543 	Hemet	Hemet	Riverside	CA	33.73542	-116.97401
92544 	Hemet	Hemet	Riverside	CA	33.708843	-116.90948
92545 	Hemet	Hemet	Riverside	CA	33.736743	-117.0217
92548 	Homeland	Homeland	Riverside	CA	33.749656	-117.11706
92549 	Idyllwild	Idyllwild	Riverside	CA	33.750795	-116.72562
92551 	Moreno Valley	Moreno Valley	Riverside	CA	33.889035	-117.22046
92553 	Moreno Valley	Moreno Valley	Riverside	CA	33.923243	-117.24211
92555 	Moreno Valley	"Moreno Valley, Rancho Belago"	Riverside	CA	33.922823	-117.16837
92557 	Moreno Valley	Moreno Valley	Riverside	CA	33.957957	-117.24833
92561 	Mountain Center	Mountain Center	Riverside	CA	33.632049	-116.55878
92562 	Murrieta	Murrieta	Riverside	CA	33.568617	-117.25264
92563 	Murrieta	Murrieta	Riverside	CA	33.571185	-117.15362
92567 	Nuevo	"Nuevo, Lakeview"	Riverside	CA	33.819818	-117.11778
92570 	Perris	Perris	Riverside	CA	33.784051	-117.29812
92571 	Perris	Perris	Riverside	CA	33.822068	-117.21514
92582 	San Jacinto	San Jacinto	Riverside	CA	33.796153	-117.00046
92583 	San Jacinto	"San Jacinto, Gilman Hot Springs"	Riverside	CA	33.788491	-116.95125
92584 	Menifee	"Menifee, Sun City"	Riverside	CA	33.66035	-117.18987
92585 	Sun City	"Sun City, Menifee, Romoland"	Riverside	CA	33.742936	-117.17432
92586 	Sun City	"Sun City, Menifee"	Riverside	CA	33.70602	-117.1974
92587 	Sun City	"Sun City, Canyon Lake, Menifee, Quail Valley"	Riverside	CA	33.692876	-117.25038
92590 	Temecula	Temecula	Riverside	CA	33.479467	-117.20933
92591 	Temecula	Temecula	Riverside	CA	33.52775	-117.12056
92592 	Temecula	Temecula	Riverside	CA	33.495343	-117.07657
92595 	Wildomar	Wildomar	Riverside	CA	33.614385	-117.2608
92596 	Winchester	"Winchester, Menifee"	Riverside	CA	33.653216	-117.07986
92602 	Irvine	Irvine	Orange	CA	33.73297	-117.76932
92603 	Irvine	Irvine	Orange	CA	33.648871	-117.764637
92604 	Irvine	Irvine	Orange	CA	33.68762	-117.78852
92606 	Irvine	Irvine	Orange	CA	33.695576	-117.80588
92610 	Foothill Ranch	"Foothill Ranch, El Toro"	Orange	CA	33.685479	-117.6669
92612 	Irvine	Irvine	Orange	CA	33.650813	-117.81771
92614 	Irvine	Irvine	Orange	CA	33.680408	-117.82592
92617 	Irvine	Irvine	Orange	0	33.642507	-117.84168
92618 	Irvine	Irvine	Orange	CA	33.659639	-117.73948
92620 	Irvine	Irvine	Orange	CA	33.714889	-117.7633
92624 	Capistrano Beach	"Capistrano Beach, Capo Beach, Dana Point"	Orange	CA	33.460727	-117.66467
92625 	Corona Del Mar	Corona Del Mar	Orange	CA	33.600172	-117.86823
92626 	Costa Mesa	Costa Mesa	Orange	CA	33.677224	-117.90863
92627 	Costa Mesa	Costa Mesa	Orange	CA	33.647028	-117.91506
92629 	Dana Point	"Dana Point, Monarch Bay, Monarch Beach"	Orange	CA	33.475302	-117.70327
92630 	Lake Forest	"Lake Forest, El Toro"	Orange	CA	33.640223	-117.69108
92637 	Laguna Woods	"Laguna Woods, Laguna Hills"	Orange	CA	33.61013755	-117.7316641
92646 	Huntington Beach	Huntington Beach	Orange	CA	33.666269	-117.9693
92647 	Huntington Beach	Huntington Beach	Orange	CA	33.725167	-118.00509
92648 	Huntington Beach	Huntington Beach	Orange	CA	33.673468	-118.00243
92649 	Huntington Beach	Huntington Beach	Orange	CA	33.720017	-118.04614
92651 	Laguna Beach	Laguna Beach	Orange	CA	33.535325	-117.77192
92653 	Laguna Hills	"Laguna Hills, Aliso Viejo, Laguna Beach, Laguna Woods"	Orange	CA	33.602823	-117.71295
92655 	Midway City	Midway City	Orange	CA	33.745166	-117.98569
92656 	Aliso Viejo	"Aliso Viejo, Laguna Beach, Laguna Hills"	Orange	CA	33.581533	-117.72474
92657 	Newport Coast	"Newport Coast, Newport Beach"	Orange	CA	33.610717	-117.8325
92660 	Newport Beach	Newport Beach	Orange	CA	33.634821	-117.87453
92661 	Newport Beach	Newport Beach	Orange	CA	33.601822	-117.89966
92662 	Newport Beach	"Newport Beach, Balboa, Balboa Island"	Orange	CA	33.606271	-117.89243
92663 	Newport Beach	Newport Beach	Orange	CA	33.619221	-117.93087
92672 	San Clemente	San Clemente	Orange	CA	33.427078	-117.61401
92673 	San Clemente	San Clemente	Orange	CA	33.462927	-117.62414
92675 	San Juan Capistrano	"San Juan Capistrano, Mission Viejo, San Juan Capo"	Orange	CA	33.500843	-117.65866
92676 	Silverado	Silverado	Orange	CA	33.743168	-117.63563
92677 	Laguna Niguel	"Laguna Niguel, Laguna Beach"	Orange	CA	33.531938	-117.7025
92678 	Trabuco Canyon	"Trabuco Canyon, Trabuco Cyn (PO Box)"	Orange	CA	33.673979	-117.59457
92679 	Trabuco Canyon	"Trabuco Canyon, Coto De Caza, Dove Canyon, Portola Hills"	Orange	CA	33.639227	-117.58518
92683 	Westminster	Westminster	Orange	CA	33.751418	-117.99392
92688 	Rancho Santa Margarita	Rancho Santa Margarita	Orange	CA	33.639994	-117.60351
92691 	Mission Viejo	"Mission Viejo, San Juan Capistrano, San Juan Capo"	Orange	CA	33.611272	-117.66681
92692 	Mission Viejo	"Mission Viejo, San Juan Capistrano, San Juan Capo"	Orange	CA	33.615462	-117.64093
92694 	Ladera Ranch	"Ladera Ranch, Mission Viejo"	Orange	CA	33.570763	-117.63463
92701 	Santa Ana	Santa Ana	Orange	CA	33.747017	-117.86248
92703 	Santa Ana	Santa Ana	Orange	CA	33.747067	-117.90433
92704 	Santa Ana	Santa Ana	Orange	CA	33.724167	-117.90623
92705 	Santa Ana	"Santa Ana, Cowan Heights, North Tustin"	Orange	CA	33.762117	-117.81828
92706 	Santa Ana	Santa Ana	Orange	CA	33.765916	-117.88139
92707 	Santa Ana	Santa Ana	Orange	CA	33.719118	-117.87143
92708 	Fountain Valley	"Fountain Valley, Santa Ana"	Orange	CA	33.708618	-117.95629
92780 	Tustin	Tustin	Orange	CA	33.741651	-117.82127
92782 	Tustin	Tustin	Orange	CA	33.739571	-117.78618
92801 	Anaheim	Anaheim	Orange	CA	33.844814	-117.95381
92802 	Anaheim	Anaheim	Orange	CA	33.806965	-117.92594
92804 	Anaheim	Anaheim	Orange	CA	33.818165	-117.97304
92805 	Anaheim	Anaheim	Orange	CA	33.835665	-117.90807
92806 	Anaheim	Anaheim	Orange	CA	33.835465	-117.87362
92807 	Anaheim	Anaheim	Orange	CA	33.850515	-117.79113
92808 	Anaheim	Anaheim	Orange	CA	33.858151	-117.73864
92821 	Brea	Brea	Orange	CA	33.923463	-117.89559
92823 	Brea	Brea	Orange	CA	33.918965	-117.83252
92831 	Fullerton	Fullerton	Orange	CA	33.878981	-117.89325
92832 	Fullerton	Fullerton	Orange	CA	33.869114	-117.92985
92833 	Fullerton	Fullerton	Orange	CA	33.874314	-117.9637
92835 	Fullerton	Fullerton	Orange	CA	33.903164	-117.91224
92840 	Garden Grove	Garden Grove	Orange	CA	33.785166	-117.93406
92841 	Garden Grove	Garden Grove	Orange	CA	33.786915	-117.98224
92843 	Garden Grove	Garden Grove	Orange	CA	33.763033	-117.9355
92844 	Garden Grove	Garden Grove	Orange	CA	33.765516	-117.9731
92845 	Garden Grove	Garden Grove	Orange	CA	33.782916	-118.02619
92860 	Norco	Norco	Riverside	CA	33.925885	-117.55978
92861 	Villa Park	"Villa Park, Orange"	Orange	CA	33.812662	-117.81623
92865 	Orange	Orange	Orange	CA	33.8318	-117.84739
92866 	Orange	Orange	Orange	CA	33.785091	-117.84569
92867 	Orange	"Orange, Villa Park"	Orange	CA	33.811566	-117.82919
92868 	Orange	Orange	Orange	CA	33.787266	-117.87494
92869 	Orange	Orange	Orange	CA	33.792687	-117.79975
92870 	Placentia	Placentia	Orange	CA	33.883314	-117.85446
92879 	Corona	Corona	Riverside	CA	33.8808	-117.54068
92880 	Corona	"Corona, Eastvale"	Riverside	CA	33.903803	-117.60221
92881 	Corona	Corona	Riverside	CA	33.839516	-117.53581
92882 	Corona	Corona	Riverside	CA	33.866555	-117.59167
92883 	Corona	Corona	Riverside	CA	33.771548	-117.47884
92886 	Yorba Linda	Yorba Linda	Orange	CA	33.888062	-117.80407
92887 	Yorba Linda	Yorba Linda	Orange	CA	33.883223	-117.73856
93001 	Ventura	Ventura	Ventura	CA	34.311203	-119.30164
93003 	Ventura	Ventura	Ventura	CA	34.268736	-119.2249
93004 	Ventura	Ventura	Ventura	CA	34.278812	-119.16784
93010 	Camarillo	Camarillo	Ventura	CA	34.231754	-119.05258
93012 	Camarillo	"Camarillo, Santa Rosa Valley"	Ventura	CA	34.218756	-118.99213
93013 	Carpinteria	Carpinteria	Santa Barbara	CA	34.402194	-119.52308
93015 	Fillmore	Fillmore	Ventura	CA	34.396646	-118.90082
93021 	Moorpark	Moorpark	Ventura	CA	34.292898	-118.87134
93022 	Oak View	Oak View	Ventura	CA	34.401466	-119.30082
93023 	Ojai	Ojai	Ventura	CA	34.456957	-119.25307
93030 	Oxnard	Oxnard	Ventura	CA	34.21707	-119.1769
93033 	Oxnard	Oxnard	Ventura	CA	34.166933	-119.16113
93035 	Oxnard	Oxnard	Ventura	CA	34.179304	-119.22189
93036 	Oxnard	Oxnard	Ventura	CA	34.22942	-119.178814
93040 	Piru	Piru (PO Box)	Ventura	CA	34.424363	-118.73908
93041 	Port Hueneme	"Port Hueneme, Point Mugu Nawc"	Ventura	CA	34.154072	-119.18829
93060 	Santa Paula	Santa Paula	Ventura	CA	34.367474	-119.07317
93063 	Simi Valley	"Simi Valley, Santa Susana"	Ventura	CA	34.279343	-118.69607
93065 	Simi Valley	Simi Valley	Ventura	CA	34.265003	-118.77177
93066 	Somis	Somis	Ventura	CA	34.287679	-119.02059
93067 	Summerland	Summerland (PO Box)	Santa Barbara	CA	34.421895	-119.60084
93101 	Santa Barbara	Santa Barbara	Santa Barbara	CA	34.420163	-119.7065
93103 	Santa Barbara	Santa Barbara	Santa Barbara	CA	34.428191	-119.68412
93105 	Santa Barbara	Santa Barbara	Santa Barbara	CA	34.44005	-119.75496
93108 	Santa Barbara	"Santa Barbara, Montecito"	Santa Barbara	CA	34.433687	-119.63184
93109 	Santa Barbara	Santa Barbara	Santa Barbara	CA	34.40323	-119.72069
93110 	Santa Barbara	"Santa Barbara, Goleta"	Santa Barbara	CA	34.439579	-119.76788
93111 	Santa Barbara	"Santa Barbara, Goleta"	Santa Barbara	CA	34.443529	-119.80297
93117 	Goleta	"Goleta, Gaviota, Isla Vista, Santa Barbara"	Santa Barbara	CA	34.443746	-119.94215
93201 	Alpaugh	Alpaugh (PO Box)	Tulare	CA	35.889586	-119.49352
93202 	Armona	Armona	Kings	CA	36.311439	-119.70823
93203 	Arvin	"Arvin, Di Giorgio"	Kern	CA	35.161923	-118.84655
93204 	Avenal	Avenal	Kings	CA	35.930766	-120.10057
93205 	Bodfish	Bodfish	Kern	CA	35.576134	-118.46745
93206 	Buttonwillow	Buttonwillow	Kern	CA	35.37825	-119.41664
93207 	California Hot Springs	California Hot Springs	Tulare	CA	35.87137	-118.6821
93210 	Coalinga	Coalinga	Fresno	CA	36.194736	-120.30865
93212 	Corcoran	Corcoran	Kings	CA	36.085342	-119.5548
93215 	Delano	Delano	Kern	CA	35.774967	-119.23371
93218 	Ducor	Ducor (PO Box)	Tulare	CA	35.842485	-119.01483
93219 	Earlimart	Earlimart	Tulare	CA	35.87368	-119.26362
93221 	Exeter	Exeter	Tulare	CA	36.304696	-119.11383
93222 	Frazier Park	"Pine Mountain Club, Frazier Park, Pine Mtn Clb (PO Box)"	Kern	CA	34.850984	-119.16626
93223 	Farmersville	Farmersville	Tulare	CA	36.300574	-119.20552
93224 	Fellows	Fellows	Kern	CA	35.202535	-119.56093
93225 	Frazier Park	Frazier Park	Kern	CA	34.815266	-119.00404
93226 	Glennville	Glennville	Kern	CA	35.727428	-118.72424
93230 	Hanford	Hanford	Kings	CA	36.327063	-119.6451
93234 	Huron	Huron	Fresno	CA	36.209815	-120.0847
93235 	Ivanhoe	Ivanhoe	Tulare	CA	36.387879	-119.21908
93238 	Kernville	Kernville	Kern	CA	35.784367	-118.43769
93239 	Kettleman City	Kettleman City	Kings	CA	36.015318	-120.00772
93240 	Lake Isabella	"Lake Isabella, Mountain Mesa"	Kern	CA	35.617148	-118.45299
93241 	Lamont	Lamont	Kern	CA	35.256873	-118.91325
93242 	Laton	Laton	Fresno	CA	36.43465	-119.71753
93243 	Lebec	"Lebec, Gorman"	Los Angeles	CA	34.851405	-118.87993
93244 	Lemon Cove	Lemon Cove	Tulare	CA	36.417743	-119.00457
93245 	Lemoore	Lemoore	Kings	CA	36.312075	-119.80349
93247 	Lindsay	Lindsay	Tulare	CA	36.201983	-119.08589
93249 	Lost Hills	Lost Hills	Kern	CA	35.689717	-119.91961
93250 	McFarland	Mc Farland	Kern	CA	35.670747	-119.21336
93252 	Maricopa	Maricopa	Kern	CA	35.040362	-119.41514
93254 	New Cuyama	"New Cuyama, Cuyama"	Santa Barbara	CA	34.956385	-119.74696
93255 	Onyx	Onyx	Kern	CA	35.666835	-118.01701
93256 	Pixley	Pixley	Tulare	CA	35.957119	-119.31287
93257 	Porterville	"Porterville, Poplar, Woodville"	Tulare	CA	36.055121	-119.01595
93258 	Porterville	Porterville (PO Box)	Tulare	CA	36.033126	-119.007265
93261 	Richgrove	Richgrove (PO Box)	Tulare	CA	35.801627	-119.11699
93263 	Shafter	Shafter	Kern	CA	35.490517	-119.26495
93265 	Springville	Springville	Tulare	CA	36.150892	-118.76204
93266 	Stratford	Stratford	Kings	CA	36.177361	-119.82042
93267 	Strathmore	Strathmore	Tulare	CA	36.141864	-119.09411
93268 	Taft	Taft	Kern	CA	35.162776	-119.4303
93270 	Terra Bella	Terra Bella	Tulare	CA	35.94901	-119.03742
93271 	Three Rivers	Three Rivers	Tulare	CA	36.431565	-118.86296
93272 	Tipton	Tipton	Tulare	CA	36.059363	-119.32025
93274 	Tulare	Tulare	Tulare	CA	36.201451	-119.34994
93277 	Visalia	Visalia	Tulare	CA	36.311	-119.32637
93280 	Wasco	Wasco	Kern	CA	35.605045	-119.37143
93283 	Weldon	Weldon	Kern	CA	35.614134	-118.27824
93285 	Wofford Heights	"Wofford Heights, Wofford Hts"	Kern	CA	35.714118	-118.48416
93286 	Woodlake	Woodlake	Tulare	CA	36.431121	-119.10642
93291 	Visalia	Visalia	Tulare	CA	36.351009	-119.33655
93292 	Visalia	Visalia	Tulare	CA	36.358928	-119.24027
93301 	Bakersfield	Bakersfield	Kern	CA	35.381408	-119.01935
93304 	Bakersfield	Bakersfield	Kern	CA	35.344209	-119.02225
93305 	Bakersfield	Bakersfield	Kern	CA	35.387058	-118.98647
93306 	Bakersfield	Bakersfield	Kern	CA	35.396411	-118.92268
93307 	Bakersfield	Bakersfield	Kern	CA	35.324767	-118.96329
93308 	Bakersfield	Bakersfield	Kern	CA	35.487491	-119.00896
93309 	Bakersfield	Bakersfield	Kern	CA	35.340759	-119.06497
93311 	Bakersfield	Bakersfield	Kern	CA	35.200467	-119.17399
93312 	Bakersfield	Bakersfield	Kern	CA	35.39068	-119.18583
93313 	Bakersfield	"Bakersfield, Pumpkin Center"	Kern	CA	35.19766	-119.05698
93314 	Bakersfield	Bakersfield	Kern	CA	35.38792726	-119.2363206
93401 	San Luis Obispo	San Luis Obispo	San Luis Obispo	CA	35.262548	-120.65196
93402 	Los Osos	"Los Osos, San Luis Obispo"	San Luis Obispo	CA	35.313222	-120.83468
93405 	San Luis Obispo	San Luis Obispo	San Luis Obispo	CA	35.277189	-120.70305
93420 	Arroyo Grande	Arroyo Grande	San Luis Obispo	CA	35.119678	-120.55116
93422 	Atascadero	Atascadero	San Luis Obispo	CA	35.474913	-120.676
93424 	Avila Beach	Avila Beach (PO Box)	San Luis Obispo	CA	35.18554	-120.72583
93426 	Bradley	Bradley	Monterey	CA	35.834919	-120.98093
93427 	Buellton	Buellton	Santa Barbara	CA	34.613014	-120.2051
93428 	Cambria	Cambria	San Luis Obispo	CA	35.563246	-121.07736
93430 	Cayucos	Cayucos	San Luis Obispo	CA	35.459347	-120.88947
93432 	Creston	Creston	San Luis Obispo	CA	35.495242	-120.48392
93433 	Grover Beach	Grover Beach	San Luis Obispo	CA	35.120934	-120.61952
93434 	Guadalupe	Guadalupe	Santa Barbara	CA	34.958896	-120.58014
93436 	Lompoc	Lompoc	Santa Barbara	CA	34.639682	-120.4471
93437 	Lompoc	"Lompoc, Vandenberg Afb"	Santa Barbara	CA	34.73489	-120.53467
93440 	Los Alamos	Los Alamos (PO Box)	Santa Barbara	CA	34.75465	-120.27032
93441 	Los Olivos	Los Olivos (PO Box)	Santa Barbara	CA	34.709973	-120.09201
93442 	Morro Bay	Morro Bay	San Luis Obispo	CA	35.373047	-120.83844
93444 	Nipomo	Nipomo	San Luis Obispo	CA	35.032408	-120.49446
93445 	Oceano	Oceano	San Luis Obispo	CA	35.097599	-120.61327
93446 	Paso Robles	"Paso Robles, Adelaide, Heritage Ranch"	San Luis Obispo	CA	35.640589	-120.70418
93449 	Pismo Beach	"Pismo Beach, Shell Beach"	San Luis Obispo	CA	35.150886	-120.65401
93450 	San Ardo	San Ardo	Monterey	CA	35.964022	-120.87339
93451 	San Miguel	"San Miguel, Parkfield"	San Luis Obispo	CA	35.818054	-120.63645
93452 	San Simeon	"San Simeon, Ragged Point"	San Luis Obispo	CA	35.664386	-121.21965
93453 	Santa Margarita	Santa Margarita	San Luis Obispo	CA	35.323098	-120.08301
93454 	Santa Maria	"Santa Maria, Rancho Suey"	Santa Barbara	CA	34.900809	-120.34876
93455 	Santa Maria	"Santa Maria, Orcutt"	Santa Barbara	CA	34.87455	-120.42806
93458 	Santa Maria	Santa Maria	Santa Barbara	CA	34.956344	-120.45243
93460 	Santa Ynez	Santa Ynez	Santa Barbara	CA	34.626931	-120.0661
93461 	Shandon	Shandon	San Luis Obispo	CA	35.636185	-120.27185
93463 	Solvang	"Solvang, Ballard"	Santa Barbara	CA	34.608938	-120.13838
93465 	Templeton	Templeton	San Luis Obispo	CA	35.54464	-120.72428
93501 	Mojave	Mojave	Kern	CA	35.04535	-118.16141
93505 	California City	California City	Kern	CA	35.139327	-117.91473
93510 	Acton	Acton	Los Angeles	CA	34.497245	-118.18951
93513 	Big Pine	Big Pine	Inyo	CA	37.1363	-118.27335
93514 	Bishop	"Bishop, Chalfant, Chalfant Valley"	Inyo	CA	37.282192	-118.38717
93516 	Boron	Boron	Kern	CA	35.030694	-117.67264
93517 	Bridgeport	Bridgeport	Mono	CA	38.21053	-119.31968
93518 	Caliente	"Caliente, Havilah"	Kern	CA	35.381552	-118.54748
93523 	Edwards	"Edwards, Aerial Acres, North Edwards"	Kern	CA	35.044352	-117.8578
93524 	Edwards	"Edwards, Edwards Air Force Base"	Kern	CA	35.294405	-118.905173
93526 	Independence	Independence	Inyo	CA	36.851729	-118.20743
93527 	Inyokern	"Inyokern, Pearsonville"	Kern	CA	35.734418	-117.89313
93529 	June Lake	June Lake	Mono	CA	37.765218	-119.07769
93531 	Keene	Keene	Kern	CA	35.241311	-118.59338
93532 	Lake Hughes	"Lake Hughes, Elizabeth Lake"	Los Angeles	CA	34.676708	-118.45592
93534 	Lancaster	Lancaster	Los Angeles	CA	34.698696	-118.15015
93535 	Lancaster	"Lancaster, Hi Vista, Lake Los Angeles"	Los Angeles	CA	34.691946	-117.97756
93536 	Lancaster	"Lancaster, Del Sur, Quartz Hill"	Los Angeles	CA	34.728857	-118.32683
93541 	Lee Vining	Lee Vining (PO Box)	Mono	CA	37.973204	-119.12029
93543 	Littlerock	"Littlerock, Juniper Hills, Sun Village"	Los Angeles	CA	34.533321	-117.94904
93544 	Llano	"Llano, Crystalaire"	Los Angeles	CA	34.493392	-117.77444
93545 	Lone Pine	Lone Pine	Inyo	CA	36.589514	-118.07367
93546 	Mammoth Lakes	"Mammoth Lakes, Crowley Lake, Toms Place"	Mono	CA	37.621587	-118.86279
93549 	Olancha	"Olancha, Cartago (PO Box)"	Inyo	CA	36.228484	-117.97084
93550 	Palmdale	"Palmdale, Lake Los Angeles"	Los Angeles	CA	34.56548	-118.08549
93551 	Palmdale	"Palmdale, City Ranch, Leona Valley, Quartz Hill"	Los Angeles	CA	34.606146	-118.18495
93552 	Palmdale	Palmdale	Los Angeles	CA	34.561207	-118.0375
93553 	Pearblossom	Pearblossom	Los Angeles	CA	34.487552	-117.89885
93555 	Ridgecrest	Ridgecrest	Kern	CA	35.599177	-117.68065
93558 	Red Mountain	"Red Mountain, Johannesburg (PO Box)"	San Bernardino	CA	34.839964	-115.967051
93560 	Rosamond	"Rosamond, Willow Springs"	Kern	CA	34.88923	-118.33629
93561 	Tehachapi	"Tehachapi, Bear Valley Springs, Golden Hills"	Kern	CA	35.132673	-118.50781
93562 	Trona	"Trona, Argus"	Inyo	CA	35.764433	-117.38202
93563 	Valyermo	"Valyermo, Pearblossom"	Los Angeles	CA	34.394253	-117.69475
93591 	Palmdale	"Palmdale, Lake Los Angeles"	Los Angeles	CA	34.596742	-117.84467
93601 	Ahwahnee	Ahwahnee	Madera	CA	37.388698	-119.72439
93602 	Auberry	Auberry	Fresno	CA	37.077273	-119.42982
93603 	Badger	"Badger, Miramonte"	Tulare	CA	36.678073	-118.9601
93604 	Bass Lake	Bass Lake	Madera	CA	37.364625	-119.51261
93606 	Biola	Biola (PO Box)	Fresno	CA	36.802534	-120.01902
93608 	Cantua Creek	Cantua Creek	Fresno	CA	36.523482	-120.38428
93609 	Caruthers	Caruthers	Fresno	CA	36.534599	-119.83592
93610 	Chowchilla	Chowchilla	Madera	CA	37.100417	-120.27864
93611 	Clovis	Clovis	Fresno	CA	36.840057	-119.66107
93612 	Clovis	Clovis	Fresno	CA	36.813456	-119.70826
93614 	Coarsegold	Coarsegold	Madera	CA	37.206505	-119.7207
93615 	Cutler	Cutler	Tulare	CA	36.506019	-119.2866
93616 	Del Rey	Del Rey	Fresno	CA	36.657266	-119.59309
93618 	Dinuba	Dinuba	Tulare	CA	36.538017	-119.38887
93619 	Clovis	Clovis	Fresno	CA	36.91560131	-119.5791682
93620 	Dos Palos	Dos Palos	Merced	CA	37.029613	-120.64014
93621 	Dunlap	Dunlap	Fresno	CA	36.774951	-119.13779
93622 	Firebaugh	Firebaugh	Fresno	CA	36.800027	-120.57996
93624 	Five Points	Five Points (PO Box)	Fresno	CA	36.40263	-120.12855
93625 	Fowler	Fowler	Fresno	CA	36.6265	-119.67526
93626 	Friant	Friant	Madera	CA	37.024461	-119.68496
93630 	Kerman	Kerman	Fresno	CA	36.722616	-120.10081
93631 	Kingsburg	Kingsburg	Fresno	CA	36.506063	-119.54587
93635 	Los Banos	Los Banos	Merced	CA	37.048385	-120.86983
93636 	Madera	Madera	Madera	CA	36.98224101	-119.8731184
93637 	Madera	"Madera, Berenda"	Madera	CA	36.914819	-120.15817
93638 	Madera	Madera	Madera	CA	36.991476	-119.98729
93640 	Mendota	Mendota	Fresno	CA	36.701905	-120.42801
93641 	Miramonte	Miramonte	Fresno	CA	36.697311	-119.01864
93643 	North Fork	North Fork	Madera	CA	37.232047	-119.52006
93644 	Oakhurst	Oakhurst	Madera	CA	37.405699	-119.56754
93645 	O Neals	O Neals	Madera	CA	37.146284	-119.67379
93646 	Orange Cove	"Orange Cove, Squaw Valley"	Fresno	CA	36.623699	-119.30892
93647 	Orosi	Orosi	Tulare	CA	36.565252	-119.24273
93648 	Parlier	Parlier	Fresno	CA	36.61365	-119.52873
93650 	Fresno	"Fresno, Pinedale"	Fresno	CA	36.841454	-119.79832
93651 	Prather	Prather	Fresno	CA	37.004865	-119.50748
93652 	Raisin	Raisin City	Fresno	CA	36.600348	-119.90272
93653 	Raymond	Raymond	Madera	CA	37.236305	-119.92498
93654 	Reedley	Reedley	Fresno	CA	36.608675	-119.43761
93656 	Riverdale	Riverdale	Fresno	CA	36.45185	-119.93651
93657 	Sanger	Sanger	Fresno	CA	36.72845	-119.53571
93660 	San Joaquin	San Joaquin	Fresno	CA	36.600172	-120.15338
93662 	Selma	Selma	Fresno	CA	36.566779	-119.62201
93664 	Shaver Lake	Shaver Lake	Fresno	CA	37.103957	-119.2644
93665 	South Dos Palos	"South Dos Palos, S Dos Palos (PO Box)"	Merced	CA	36.961248	-120.65439
93666 	Sultana	Sultana (PO Box)	Tulare	CA	36.545749	-119.33907
93667 	Tollhouse	Tollhouse	Fresno	CA	36.981035	-119.38254
93668 	Tranquillity	Tranquillity	Fresno	CA	36.641742	-120.28909
93673 	Traver	Traver (PO Box)	Tulare	CA	36.455501	-119.48495
93675 	Squaw Valley	"Squaw Valley, Orange Cove"	Fresno	CA	36.713181	-119.18327
93701 	Fresno	Fresno	Fresno	CA	36.749444	-119.78872
93702 	Fresno	Fresno	Fresno	CA	36.741199	-119.7553
93703 	Fresno	Fresno	Fresno	CA	36.767299	-119.765
93704 	Fresno	Fresno	Fresno	CA	36.794748	-119.80097
93705 	Fresno	Fresno	Fresno	CA	36.786948	-119.82747
93706 	Fresno	Fresno	Fresno	CA	36.691036	-119.83321
93710 	Fresno	Fresno	Fresno	CA	36.825582	-119.76358
93711 	Fresno	Fresno	Fresno	CA	36.831723	-119.83198
93720 	Fresno	Fresno	Fresno	CA	36.865587	-119.75917
93721 	Fresno	Fresno	Fresno	CA	36.733193	-119.78473
93722 	Fresno	Fresno	Fresno	CA	36.801603	-119.88878
93723 	Fresno	Fresno	Fresno	CA	36.78624323	-119.953215
93725 	Fresno	Fresno	Fresno	CA	36.658599	-119.74097
93726 	Fresno	Fresno	Fresno	CA	36.795249	-119.76293
93727 	Fresno	Fresno	Fresno	CA	36.753177	-119.69703
93728 	Fresno	Fresno	Fresno	CA	36.758598	-119.81022
93730 	Fresno	Fresno	Fresno	CA	36.90316556	-119.7549002
93901 	Salinas	Salinas	Monterey	CA	36.665879	-121.65497
93905 	Salinas	Salinas	Monterey	CA	36.681161	-121.61538
93906 	Salinas	Salinas	Monterey	CA	36.709717	-121.63997
93907 	Salinas	"Salinas, Prunedale"	Monterey	CA	36.754058	-121.66472
93908 	Salinas	"Salinas, Corral De Tierra"	Monterey	CA	36.619954	-121.65145
93920 	Big Sur	Big Sur	Monterey	CA	36.133401	-121.63798
93921 	Carmel	"Carmel By The Sea, Carmel, Carmel By The (PO Box)"	Monterey	CA	36.555248	-121.9212
93923 	Carmel	Carmel	Monterey	CA	36.517261	-121.89436
93924 	Carmel Valley	Carmel Valley	Monterey	CA	36.447533	-121.68611
93925 	Chualar	Chualar	Monterey	CA	36.581329	-121.46597
93926 	Gonzales	Gonzales	Monterey	CA	36.518179	-121.42557
93927 	Greenfield	Greenfield	Monterey	CA	36.300819	-121.2904
93928 	Jolon	"Jolon, Fort Hunter Liggett, Ft H Liggett (PO Box)"	Monterey	CA	36.015388	-121.24839
93930 	King City	King City	Monterey	CA	36.21106	-121.05986
93932 	Lockwood	Lockwood (PO Box)	Monterey	CA	35.987276	-121.04788
93933 	Marina	Marina	Monterey	CA	36.678155	-121.79724
93940 	Monterey	"Monterey, Del Rey Oaks"	Monterey	CA	36.586193	-121.88667
93950 	Pacific Grove	Pacific Grove	Monterey	CA	36.619065	-121.92102
93953 	Pebble Beach	Pebble Beach	Monterey	CA	36.59081	-121.9461
93955 	Seaside	"Seaside, Sand City"	Monterey	CA	36.615813	-121.83461
93960 	Soledad	Soledad	Monterey	CA	36.41176	-121.32617
93962 	Spreckels	"Spreckels, Salinas (PO Box)"	Monterey	CA	36.624606	-121.64655
94002 	Belmont	Belmont	San Mateo	CA	37.516687	-122.29026
94005 	Brisbane	Brisbane	San Mateo	CA	37.682882	-122.40422
94010 	Burlingame	"Burlingame, Hillsborough"	San Mateo	CA	37.574936	-122.36332
94014 	Daly City	"Daly City, Colma"	San Mateo	CA	37.699182	-122.45035
94015 	Daly City	"Daly City, Broadmoor Village"	San Mateo	CA	37.682583	-122.48209
94019 	Half Moon Bay	Half Moon Bay	San Mateo	CA	37.47584	-122.44323
94020 	La Honda	La Honda	San Mateo	CA	37.28842	-122.22457
94022 	Los Altos	"Los Altos, Los Altos Hills"	Santa Clara	CA	37.37714	-122.12412
94024 	Los Altos	"Los Altos, Los Altos Hills"	Santa Clara	CA	37.353741	-122.08717
94025 	Menlo Park	"Menlo Park, West Menlo Park"	San Mateo	CA	37.451688	-122.18385
94027 	Atherton	"Atherton, Menlo Park"	San Mateo	CA	37.458615	-122.20009
94028 	Portola Valley	"Portola Valley, Menlo Park"	San Mateo	CA	37.374421	-122.213
94030 	Millbrae	Millbrae	San Mateo	CA	37.600735	-122.40135
94037 	Montara	Montara (PO Box)	San Mateo	CA	37.539839	-122.50819
94038 	Moss Beach	Moss Beach	San Mateo	CA	37.52489	-122.50991
94040 	Mountain View	Mountain View	Santa Clara	CA	37.380207	-122.08787
94041 	Mountain View	Mountain View	Santa Clara	CA	37.38949	-122.07846
94043 	Mountain View	Mountain View	Santa Clara	CA	37.40679	-122.07461
94044 	Pacifica	Pacifica	San Mateo	CA	37.613806	-122.48229
94060 	Pescadero	Pescadero	San Mateo	CA	37.203092	-122.33718
94061 	Redwood City	"Redwood City, Woodside"	San Mateo	CA	37.463911	-122.23396
94062 	Redwood City	"Redwood City, Emerald Hills, Palomar Park, Woodside"	San Mateo	CA	37.444879	-122.26253
94063 	Redwood City	Redwood City	San Mateo	CA	37.483504	-122.2144
94065 	Redwood City	Redwood City	San Mateo	CA	37.533538	-122.24602
94066 	San Bruno	San Bruno	San Mateo	CA	37.625908	-122.42363
94070 	San Carlos	San Carlos	San Mateo	CA	37.499175	-122.26655
94074 	San Gregorio	San Gregorio	San Mateo	CA	37.317278	-122.36526
94080 	South San Francisco	"South San Francisco, S San Fran"	San Mateo	CA	37.652857	-122.4301
94085 	Sunnyvale	Sunnyvale	Santa Clara	CA	37.38894	-122.017956
94086 	Sunnyvale	Sunnyvale	Santa Clara	CA	37.378341	-122.02398
94087 	Sunnyvale	Sunnyvale	Santa Clara	CA	37.350091	-122.03602
94089 	Sunnyvale	Sunnyvale	Santa Clara	CA	37.406289	-122.00838
94102 	San Francisco	San Francisco	San Francisco	CA	37.779329	-122.41915
94103 	San Francisco	San Francisco	San Francisco	CA	37.772329	-122.41087
94104 	San Francisco	San Francisco	San Francisco	CA	37.791728	-122.4019
94105 	San Francisco	San Francisco	San Francisco	CA	37.789228	-122.3957
94107 	San Francisco	San Francisco	San Francisco	CA	37.766529	-122.39577
94108 	San Francisco	San Francisco	San Francisco	CA	37.792678	-122.40793
94109 	San Francisco	San Francisco	San Francisco	CA	37.792778	-122.42188
94110 	San Francisco	San Francisco	San Francisco	CA	37.74873	-122.41545
94111 	San Francisco	San Francisco	San Francisco	CA	37.798228	-122.40027
94112 	San Francisco	San Francisco	San Francisco	CA	37.720931	-122.44241
94114 	San Francisco	San Francisco	San Francisco	CA	37.758434	-122.43512
94115 	San Francisco	San Francisco	San Francisco	CA	37.786129	-122.43736
94116 	San Francisco	San Francisco	San Francisco	CA	37.743381	-122.48578
94117 	San Francisco	San Francisco	San Francisco	CA	37.770937	-122.44276
94118 	San Francisco	San Francisco	San Francisco	CA	37.782029	-122.46158
94121 	San Francisco	San Francisco	San Francisco	CA	37.778729	-122.49265
94122 	San Francisco	San Francisco	San Francisco	CA	37.75838	-122.48478
94123 	San Francisco	San Francisco	San Francisco	CA	37.801028	-122.43836
94124 	San Francisco	San Francisco	San Francisco	CA	37.732797	-122.39348
94127 	San Francisco	San Francisco	San Francisco	CA	37.734964	-122.4597
94129 	San Francisco	San Francisco	San Francisco	CA	37.79984	-122.46167
94130 	San Francisco	San Francisco	San Francisco	CA	37.819423	-122.36966
94131 	San Francisco	San Francisco	San Francisco	CA	37.741797	-122.4378
94132 	San Francisco	San Francisco	San Francisco	CA	37.724231	-122.47958
94133 	San Francisco	San Francisco	San Francisco	CA	37.801878	-122.41018
94134 	San Francisco	San Francisco	San Francisco	CA	37.719581	-122.41085
94158 	San Francisco	San Francisco	San Francisco	CA	37.76936306	-122.3867043
94301 	Palo Alto	Palo Alto	Santa Clara	CA	37.443688	-122.15071
94303 	Palo Alto	"Palo Alto, East Palo Alto"	Santa Clara	CA	37.449888	-122.12749
94304 	Palo Alto	Palo Alto	Santa Clara	CA	37.397823	-122.16605
94305 	Stanford	"Stanford, Palo Alto"	Santa Clara	CA	37.427039	-122.16496
94306 	Palo Alto	Palo Alto	Santa Clara	CA	37.419389	-122.13273
94401 	San Mateo	San Mateo	San Mateo	CA	37.570385	-122.32044
94402 	San Mateo	San Mateo	San Mateo	CA	37.551586	-122.32773
94403 	San Mateo	San Mateo	San Mateo	CA	37.539686	-122.30266
94404 	San Mateo	"San Mateo, Foster City"	San Mateo	CA	37.554335	-122.27032
94501 	Alameda	Alameda	Alameda	CA	37.769528	-122.25937
94502 	Alameda	Alameda	Alameda	CA	37.734379	-122.23952
94503 	American Canyon	"American Canyon, American Cyn, Vallejo"	Napa	CA	38.170372	-122.25605
94505 	Discovery Bay	"Discovery Bay, Byron"	Contra Costa	CA	38.18421014	-122.2629377
94506 	Danville	"Danville, Blackhawk"	Contra Costa	CA	37.804064	-121.91202
94507 	Alamo	Alamo	Contra Costa	CA	37.856683	-122.02488
94508 	Angwin	Angwin	Napa	CA	38.568307	-122.45084
94509 	Antioch	Antioch	Contra Costa	CA	37.991571	-121.80207
94510 	Benicia	Benicia	Solano	CA	38.071769	-122.15517
94511 	Bethel Island	Bethel Island (PO Box)	Contra Costa	CA	38.040395	-121.63852
94513 	Brentwood	Brentwood	Contra Costa	CA	37.932123	-121.70381
94514 	Byron	"Byron, Discovery Bay"	Contra Costa	CA	37.847704	-121.60812
94515 	Calistoga	Calistoga	Napa	CA	38.597907	-122.60952
94517 	Clayton	Clayton	Contra Costa	CA	37.923523	-121.91172
94518 	Concord	Concord	Contra Costa	CA	37.954122	-122.02506
94519 	Concord	Concord	Contra Costa	CA	37.984271	-122.01437
94520 	Concord	Concord	Contra Costa	CA	37.986321	-122.03988
94521 	Concord	Concord	Contra Costa	CA	37.957772	-121.97709
94523 	Pleasant Hill	"Pleasant Hill, Concord"	Contra Costa	CA	37.951672	-122.07317
94525 	Crockett	Crockett	Contra Costa	CA	38.05282	-122.2234
94526 	Danville	Danville	Contra Costa	CA	37.811676	-121.98647
94528 	Diablo	Diablo (PO Box)	Contra Costa	CA	37.838744	-121.96672
94530 	El Cerrito	El Cerrito	Contra Costa	CA	37.917774	-122.30426
94531 	Antioch	Antioch	Contra Costa	CA	37.920852	-121.723919
94533 	Fairfield	Fairfield	Solano	CA	38.269582	-122.03701
94534 	Fairfield	"Fairfield, Suisun City"	Solano	CA	38.245844	-122.101917
94535 	Travis AFB	"Travis Afb, Fairfield"	Solano	CA	38.277661	-121.9192
94536 	Fremont	Fremont	Alameda	CA	37.562218	-121.99433
94538 	Fremont	Fremont	Alameda	CA	37.527237	-121.9679
94539 	Fremont	Fremont	Alameda	CA	37.515014	-121.92916
94541 	Hayward	Hayward	Alameda	CA	37.674431	-122.08883
94542 	Hayward	Hayward	Alameda	CA	37.657381	-122.05076
94544 	Hayward	Hayward	Alameda	CA	37.633732	-122.06101
94545 	Hayward	Hayward	Alameda	CA	37.635582	-122.10418
94546 	Castro Valley	"Castro Valley, Hayward"	Alameda	CA	37.702063	-122.07934
94547 	Hercules	"Hercules, Rodeo"	Contra Costa	CA	38.005122	-122.25784
94548 	Knightsen	Knightsen (PO Box)	Contra Costa	CA	37.972622	-121.665205
94549 	Lafayette	Lafayette	Contra Costa	CA	37.895695	-122.11785
94550 	Livermore	Livermore	Alameda	CA	37.65778	-121.73011
94551 	Livermore	Livermore	Alameda	CA	37.680181	-121.921498
94552 	Castro Valley	"Castro Valley, Hayward"	Alameda	CA	37.69768	-122.02503
94553 	Martinez	"Martinez, Briones, Pacheco"	Contra Costa	CA	37.998912	-122.11501
94555 	Fremont	Fremont	Alameda	CA	37.571581	-122.0509
94556 	Moraga	Moraga	Contra Costa	CA	37.839426	-122.12426
94558 	Napa	"Napa, Spanish Flat"	Napa	CA	38.337243	-122.30027
94559 	Napa	Napa	Napa	CA	38.291164	-122.28671
94560 	Newark	Newark	Alameda	CA	37.535586	-122.03362
94561 	Oakley	Oakley	Contra Costa	CA	37.992124	-121.71328
94563 	Orinda	Orinda	Contra Costa	CA	37.878625	-122.18296
94564 	Pinole	Pinole	Contra Costa	CA	37.997509	-122.29208
94565 	Pittsburg	"Pittsburg, Bay Point"	Contra Costa	CA	38.017917	-121.90502
94566 	Pleasanton	Pleasanton	Alameda	CA	37.658898	-121.87149
94567 	Pope Valley	Pope Valley	Napa	CA	38.658204	-122.40441
94568 	Dublin	"Dublin, Pleasanton"	Alameda	CA	37.714179	-121.92567
94569 	Port Costa	Port Costa (PO Box)	Contra Costa	CA	38.04337	-122.18994
94571 	Rio Vista	Rio Vista	Solano	CA	38.156909	-121.72075
94572 	Rodeo	Rodeo	Contra Costa	CA	38.031271	-122.26213
94574 	Saint Helena	Saint Helena	Napa	CA	38.511241	-122.45695
94575 	Moraga	Moraga (PO Box)	Contra Costa	CA	37.777208	-121.955399
94577 	San Leandro	San Leandro	Alameda	CA	37.722279	-122.15702
94578 	San Leandro	San Leandro	Alameda	CA	37.703427	-122.128
94579 	San Leandro	San Leandro	Alameda	CA	37.68858	-122.15421
94580 	San Lorenzo	San Lorenzo	Alameda	CA	37.678531	-122.13199
94582 	San Ramon	San Ramon	Contra Costa	CA	37.76352517	-121.9153729
94583 	San Ramon	San Ramon	Contra Costa	CA	37.75735	-121.95213
94585 	Suisun City	"Suisun City, Birds Landing"	Solano	CA	38.231364	-122.05414
94586 	Sunol	Sunol	Alameda	CA	37.593883	-121.88281
94587 	Union City	Union City	Alameda	CA	37.592184	-122.04577
94588 	Pleasanton	Pleasanton	Alameda	CA	37.68973	-121.89244
94589 	Vallejo	"Vallejo, American Canyon"	Solano	CA	38.152068	-122.25074
94590 	Vallejo	Vallejo	Solano	CA	38.105219	-122.24571
94591 	Vallejo	Vallejo	Solano	CA	38.099119	-122.21035
94592 	Vallejo	Vallejo	Solano	CA	38.115015	-122.29055
94595 	Walnut Creek	Walnut Creek	Contra Costa	CA	37.879757	-122.07143
94596 	Walnut Creek	Walnut Creek	Contra Costa	CA	37.905924	-122.05858
94597 	Walnut Creek	Walnut Creek	Contra Costa	CA	37.777208	-121.955399
94598 	Walnut Creek	Walnut Creek	Contra Costa	CA	37.91878	-122.02618
94599 	Yountville	Yountville	Napa	CA	38.403011	-122.36228
94601 	Oakland	Oakland	Alameda	CA	37.776835	-122.21792
94602 	Oakland	"Oakland, Piedmont"	Alameda	CA	37.799727	-122.21211
94603 	Oakland	Oakland	Alameda	CA	37.738379	-122.17332
94605 	Oakland	Oakland	Alameda	CA	37.763028	-122.16305
94606 	Oakland	Oakland	Alameda	CA	37.793177	-122.24352
94607 	Oakland	Oakland	Alameda	CA	37.806427	-122.28898
94608 	Emeryville	"Emeryville, Oakland"	Alameda	CA	37.834724	-122.28316
94609 	Oakland	Oakland	Alameda	CA	37.834926	-122.264
94610 	Oakland	"Oakland, Piedmont"	Alameda	CA	37.812377	-122.24199
94611 	Oakland	"Oakland, Piedmont"	Alameda	CA	37.827126	-122.22289
94612 	Oakland	Oakland	Alameda	CA	37.809427	-122.27172
94613 	Oakland	Oakland (PO Box)	Alameda	CA	37.781098	-122.186573
94618 	Oakland	"Oakland, Piedmont"	Alameda	CA	37.843726	-122.24369
94619 	Oakland	Oakland	Alameda	CA	37.790027	-122.18615
94621 	Oakland	Oakland	Alameda	CA	37.753978	-122.18969
94702 	Berkeley	Berkeley	Alameda	CA	37.865026	-122.2859
94703 	Berkeley	Berkeley	Alameda	CA	37.862526	-122.27582
94704 	Berkeley	Berkeley	Alameda	CA	37.868575	-122.25855
94705 	Berkeley	Berkeley	Alameda	CA	37.856926	-122.25084
94706 	Albany	"Albany, Berkeley, Kensington"	Alameda	CA	37.889125	-122.29371
94707 	Berkeley	"Berkeley, Albany, Kensington"	Alameda	CA	37.894625	-122.27917
94708 	Berkeley	"Berkeley, Kensington"	Alameda	CA	37.894625	-122.26372
94709 	Berkeley	Berkeley	Alameda	CA	37.879625	-122.2668
94710 	Berkeley	"Berkeley, Albany"	Alameda	CA	37.869976	-122.2981
94720 	Berkeley	"Berkeley, UC Berkeley"	Alameda	CA	37.866825	-122.253582
94801 	Richmond	"Richmond, North Richmond, Point Richmond"	Contra Costa	CA	37.941424	-122.36628
94803 	El Sobrante	"El Sobrante, Richmond, San Pablo"	Contra Costa	CA	37.969673	-122.29413
94804 	Richmond	Richmond	Contra Costa	CA	37.926509	-122.3408
94805 	Richmond	Richmond	Contra Costa	CA	37.941824	-122.32553
94806 	San Pablo	"San Pablo, Hilltop Mall, Richmond"	Contra Costa	CA	37.972623	-122.33873
94901 	San Rafael	"San Rafael, San Anselmo"	Marin	CA	37.972423	-122.51484
94903 	San Rafael	San Rafael	Marin	CA	38.019022	-122.54589
94904 	Greenbrae	"Greenbrae, Kentfield"	Marin	CA	37.950069	-122.54284
94920 	Belvedere Tiburon	"Belvedere Tiburon, Bel Tiburon, Belvedere, Tiburon"	Marin	CA	37.892476	-122.47541
94922 	Bodega	Bodega	Sonoma	CA	38.345572	-122.96676
94923 	Bodega Bay	Bodega Bay	Sonoma	CA	38.347701	-123.05869
94924 	Bolinas	Bolinas	Marin	CA	37.907675	-122.70201
94925 	Corte Madera	Corte Madera	Marin	CA	37.924242	-122.516
94928 	Rohnert Park	"Rohnert Park, Cotati"	Sonoma	CA	38.347174	-122.69537
94930 	Fairfax	Fairfax	Marin	CA	37.98779	-122.59962
94931 	Cotati	Cotati	Sonoma	CA	38.328614	-122.71044
94933 	Forest Knolls	Forest Knolls (PO Box)	Marin	CA	38.012489	-122.68886
94937 	Inverness	Inverness	Marin	CA	38.099205	-122.87751
94938 	Lagunitas	Lagunitas (PO Box)	Marin	CA	38.017617	-122.6943
94939 	Larkspur	Larkspur	Marin	CA	37.936151	-122.5355
94940 	Marshall	Marshall	Marin	CA	38.180029	-122.88357
94941 	Mill Valley	Mill Valley	Marin	CA	37.898058	-122.54134
94945 	Novato	Novato	Marin	CA	38.117065	-122.56316
94946 	Nicasio	Nicasio	Marin	CA	38.050454	-122.67866
94947 	Novato	Novato	Marin	CA	38.098221	-122.59809
94949 	Novato	Novato	Marin	CA	38.06317	-122.54111
94951 	Penngrove	Penngrove	Sonoma	CA	38.314531	-122.66097
94952 	Petaluma	Petaluma	Sonoma	CA	38.243734	-122.69345
94954 	Petaluma	Petaluma	Sonoma	CA	38.243299	-122.6069
94956 	Point Reyes Station	"Point Reyes Station, Pt Reyes Sta"	Marin	CA	38.081566	-122.81988
94957 	Ross	Ross (PO Box)	Marin	CA	38.022322	-122.561689
94960 	San Anselmo	San Anselmo	Marin	CA	37.981623	-122.56884
94963 	San Geronimo	San Geronimo (PO Box)	Marin	CA	38.012082	-122.66389
94964 	San Quentin	San Quentin (PO Box)	Marin	CA	37.943365	-122.49029
94965 	Sausalito	"Sausalito, Muir Beach"	Marin	CA	37.855527	-122.49949
94970 	Stinson Beach	Stinson Beach	Marin	CA	37.903396	-122.65043
94971 	Tomales	Tomales (PO Box)	Marin	CA	38.245851	-122.90644
94973 	Woodacre	Woodacre (PO Box)	Marin	CA	38.007639	-122.63914
95002 	Alviso	Alviso (PO Box)	Santa Clara	CA	37.427439	-121.97521
95003 	Aptos	Aptos	Santa Cruz	CA	36.979333	-121.8944
95004 	Aromas	Aromas	Monterey	CA	36.885056	-121.63082
95005 	Ben Lomond	Ben Lomond	Santa Cruz	CA	37.084347	-122.08524
95006 	Boulder Creek	Boulder Creek	Santa Cruz	CA	37.151813	-122.13679
95007 	Brookdale	Brookdale (PO Box)	Santa Cruz	CA	37.10548	-122.1047
95008 	Campbell	Campbell	Santa Clara	CA	37.278843	-121.95446
95010 	Capitola	Capitola	Santa Cruz	CA	36.9761	-121.95316
95012 	Castroville	Castroville	Monterey	CA	36.768856	-121.75105
95014 	Cupertino	"Cupertino, Monte Vista, Permanente"	Santa Clara	CA	37.317909	-122.04779
95017 	Davenport	Davenport	Santa Cruz	CA	37.085986	-122.22638
95018 	Felton	Felton	Santa Cruz	CA	37.057708	-122.05967
95019 	Freedom	Freedom	Santa Cruz	CA	36.935552	-121.77972
95020 	Gilroy	Gilroy	Santa Clara	CA	37.016943	-121.56581
95023 	Hollister	Hollister	San Benito	CA	36.862243	-121.38006
95030 	Los Gatos	"Los Gatos, Monte Sereno"	Santa Clara	CA	37.228594	-121.98396
95032 	Los Gatos	Los Gatos	Santa Clara	CA	37.241193	-121.9534
95033 	Los Gatos	Los Gatos	Santa Clara	CA	37.160012	-121.9881
95035 	Milpitas	Milpitas	Santa Clara	CA	37.436451	-121.89438
95037 	Morgan Hill	Morgan Hill	Santa Clara	CA	37.137595	-121.66211
95039 	Moss Landing	Moss Landing	Monterey	CA	36.812905	-121.78299
95043 	Paicines	Paicines	San Benito	CA	36.504586	-121.01515
95045 	San Juan Bautista	San Juan Bautista	San Benito	CA	36.829052	-121.52848
95046 	San Martin	San Martin	Santa Clara	CA	37.088746	-121.60048
95050 	Santa Clara	Santa Clara	Santa Clara	CA	37.347791	-121.95131
95051 	Santa Clara	Santa Clara	Santa Clara	CA	37.346241	-121.9846
95053 	Santa Clara	Santa Clara	Santa Clara	CA	37.189396	-121.705327
95054 	Santa Clara	Santa Clara	Santa Clara	CA	37.39324	-121.96066
95060 	Santa Cruz	"Santa Cruz, Bonny Doon, Scotts Valley"	Santa Cruz	CA	36.980556	-122.04603
95062 	Santa Cruz	Santa Cruz	Santa Cruz	CA	36.9707	-121.99086
95064 	Santa Cruz	Santa Cruz	Santa Cruz	CA	37.000199	-122.06026
95065 	Santa Cruz	Santa Cruz	Santa Cruz	CA	37.010322	-121.98523
95066 	Scotts Valley	"Scotts Valley, Santa Cruz"	Santa Cruz	CA	37.057575	-122.01507
95070 	Saratoga	Saratoga	Santa Clara	CA	37.270543	-122.02305
95073 	Soquel	Soquel	Santa Cruz	CA	37.007916	-121.95072
95075 	Tres Pinos	Tres Pinos	San Benito	CA	36.761702	-121.274795
95076 	Watsonville	"Watsonville, Corralitos, La Selva Beach"	Santa Cruz	CA	36.922902	-121.77224
95110 	San Jose	San Jose	Santa Clara	CA	37.335545	-121.89877
95111 	San Jose	San Jose	Santa Clara	CA	37.284042	-121.82664
95112 	San Jose	San Jose	Santa Clara	CA	37.348541	-121.88627
95116 	San Jose	San Jose	Santa Clara	CA	37.34964	-121.8544
95117 	San Jose	San Jose	Santa Clara	CA	37.311042	-121.96162
95118 	San Jose	San Jose	Santa Clara	CA	37.257643	-121.89072
95119 	San Jose	San Jose	Santa Clara	CA	37.232244	-121.79092
95120 	San Jose	San Jose	Santa Clara	CA	37.213624	-121.85671
95121 	San Jose	San Jose	Santa Clara	CA	37.305714	-121.81145
95122 	San Jose	San Jose	Santa Clara	CA	37.329641	-121.83359
95123 	San Jose	San Jose	Santa Clara	CA	37.244426	-121.83246
95124 	San Jose	San Jose	Santa Clara	CA	37.256743	-121.92312
95125 	San Jose	San Jose	Santa Clara	CA	37.295092	-121.89649
95126 	San Jose	San Jose	Santa Clara	CA	37.326341	-121.9178
95127 	San Jose	San Jose	Santa Clara	CA	37.369473	-121.82077
95128 	San Jose	San Jose	Santa Clara	CA	37.316983	-121.93555
95129 	San Jose	San Jose	Santa Clara	CA	37.307742	-121.99976
95130 	San Jose	San Jose	Santa Clara	CA	37.289642	-121.98311
95131 	San Jose	San Jose	Santa Clara	CA	37.38631	-121.88987
95132 	San Jose	San Jose	Santa Clara	CA	37.405989	-121.84775
95133 	San Jose	San Jose	Santa Clara	CA	37.37354	-121.85784
95134 	San Jose	San Jose	Santa Clara	CA	37.412539	-121.94461
95135 	San Jose	San Jose	Santa Clara	CA	37.299474	-121.75446
95136 	San Jose	San Jose	Santa Clara	CA	37.269343	-121.84939
95138 	San Jose	San Jose	Santa Clara	CA	37.255915	-121.77536
95139 	San Jose	San Jose	Santa Clara	CA	37.226194	-121.76514
95140 	Mount Hamilton	"Mount Hamilton, San Jose"	Santa Clara	CA	37.388718	-121.63845
95148 	San Jose	San Jose	Santa Clara	CA	37.330496	-121.79141
95202 	Stockton	Stockton	San Joaquin	CA	37.958723	-121.28805
95203 	Stockton	Stockton	San Joaquin	CA	37.954823	-121.30735
95204 	Stockton	Stockton	San Joaquin	CA	37.974273	-121.3147
95205 	Stockton	Stockton	San Joaquin	CA	37.962873	-121.26401
95206 	Stockton	Stockton	San Joaquin	CA	37.922024	-121.3025
95207 	Stockton	Stockton	San Joaquin	CA	38.004172	-121.3237
95209 	Stockton	Stockton	San Joaquin	CA	38.035499	-121.34378
95210 	Stockton	Stockton	San Joaquin	CA	38.025086	-121.29722
95211 	Stockton	Stockton	San Joaquin	CA	37.981073	-121.308008
95212 	Stockton	"Stockton, Morada"	San Joaquin	CA	38.038906	-121.24213
95215 	Stockton	Stockton	San Joaquin	CA	37.955474	-121.19064
95219 	Stockton	Stockton	San Joaquin	CA	38.004922	-121.40022
95220 	Acampo	Acampo	San Joaquin	CA	38.200193	-121.23505
95222 	Angels Camp	Angels Camp	Calaveras	CA	38.087437	-120.58072
95223 	Arnold	"Arnold, Bear Valley, Camp Connell"	Calaveras	CA	38.282255	-120.28875
95224 	Avery	Avery (PO Box)	Calaveras	CA	38.208553	-120.34876
95225 	Burson	Burson (PO Box)	Calaveras	CA	38.183288	-120.89487
95227 	Clements	Clements (PO Box)	San Joaquin	CA	38.205817	-121.05361
95228 	Copperopolis	Copperopolis	Calaveras	CA	37.942532	-120.65786
95230 	Farmington	Farmington	Stanislaus	CA	37.959439	-120.82329
95231 	French Camp	French Camp	San Joaquin	CA	37.882742	-121.27978
95232 	Glencoe	Glencoe	Calaveras	CA	38.356552	-120.58318
95233 	Hathaway Pines	"Hathaway Pines, Hathaway Pnes (PO Box)"	Calaveras	CA	38.186102	-120.36328
95234 	Holt	Holt (PO Box)	San Joaquin	CA	37.889849	-121.253872
95236 	Linden	Linden	San Joaquin	CA	38.018456	-121.05675
95237 	Lockeford	Lockeford	San Joaquin	CA	38.162818	-121.14855
95240 	Lodi	Lodi	San Joaquin	CA	38.12463	-121.25039
95242 	Lodi	Lodi	San Joaquin	CA	38.132618	-121.32282
95245 	Mokelumne Hill	Mokelumne Hill	Calaveras	CA	38.300688	-120.62632
95246 	Mountain Ranch	"Mountain Ranch, Sheep Ranch"	Calaveras	CA	38.26127	-120.50328
95247 	Murphys	Murphys	Calaveras	CA	38.146124	-120.45458
95249 	San Andreas	San Andreas	Calaveras	CA	38.192823	-120.64285
95251 	Vallecito	Vallecito	Calaveras	CA	38.075897	-120.46544
95252 	Valley Springs	"Valley Springs, Valley Spgs"	Calaveras	CA	38.145601	-120.85733
95254 	Wallace	Wallace (PO Box)	Calaveras	CA	38.192911	-120.95775
95255 	West Point	West Point	Calaveras	CA	38.421689	-120.46947
95257 	Wilseyville	Wilseyville	Calaveras	CA	38.377741	-120.45741
95258 	Woodbridge	Woodbridge	San Joaquin	CA	38.154118	-121.306
95301 	Atwater	Atwater	Merced	CA	37.35115	-120.6056
95303 	Ballico	Ballico	Merced	CA	37.46994	-120.67607
95304 	Banta	"Tracy, Banta"	San Joaquin	CA	37.889849	-121.253872
95306 	Catheys Valley	"Catheys Valley, Catheys Vly"	Mariposa	CA	37.432168	-120.09682
95307 	Ceres	Ceres	Stanislaus	CA	37.584282	-120.95064
95310 	Columbia	Columbia	Tuolumne	CA	38.060956	-120.39216
95311 	Coulterville	Coulterville	Mariposa	CA	37.74614	-120.15123
95312 	Cressey	Cressey (PO Box)	Merced	CA	37.420143	-120.66525
95313 	Crows Landing	Crows Landing	Stanislaus	CA	37.413659	-121.05649
95315 	Delhi	Delhi	Merced	CA	37.428227	-120.77519
95316 	Denair	Denair	Stanislaus	CA	37.552329	-120.78463
95317 	El Nido	El Nido	Merced	CA	37.127525	-120.50574
95318 	El Portal	El Portal (PO Box)	Mariposa	CA	37.673629	-119.81305
95319 	Empire	Empire (PO Box)	Stanislaus	CA	37.637531	-120.906593
95320 	Escalon	Escalon	San Joaquin	CA	37.797806	-121.00179
95321 	Groveland	Groveland	Tuolumne	CA	37.840248	-120.04541
95322 	Gustine	"Gustine, Santa Nella"	Merced	CA	37.187494	-121.03232
95323 	Hickman	Hickman	Stanislaus	CA	37.6194	-120.7141
95324 	Hilmar	Hilmar	Merced	CA	37.400932	-120.87972
95326 	Hughson	Hughson	Stanislaus	CA	37.59471	-120.86419
95327 	Jamestown	Jamestown	Tuolumne	CA	37.867243	-120.49157
95328 	Keyes	Keyes	Stanislaus	CA	37.5596	-120.9141
95329 	La Grange	La Grange	Mariposa	CA	37.694235	-120.42421
95330 	Lathrop	Lathrop	San Joaquin	CA	37.816876	-121.28541
95333 	Le Grand	Le Grand	Merced	CA	37.245423	-120.27116
95334 	Livingston	Livingston	Merced	CA	37.38025	-120.72614
95335 	Long Barn	"Long Barn, Cold Springs"	Tuolumne	CA	38.119056	-120.1014
95336 	Manteca	Manteca	San Joaquin	CA	37.812815	-121.21416
95337 	Manteca	Manteca	San Joaquin	CA	37.782332	-121.23578
95338 	Mariposa	Mariposa	Mariposa	CA	37.505484	-119.92527
95340 	Merced	Merced	Merced	CA	37.294648	-120.47474
95341 	Merced	Merced	Merced	CA	37.186872	-120.650351
95345 	Midpines	Midpines	Mariposa	CA	37.576262	-119.94865
95346 	Mi Wuk Village	Mi Wuk Village	Tuolumne	CA	38.079632	-120.16872
95348 	Merced	Merced	Merced	CA	37.342056	-120.50154
95350 	Modesto	Modesto	Stanislaus	CA	37.671778	-121.01249
95351 	Modesto	Modesto	Stanislaus	CA	37.626067	-120.99955
95354 	Modesto	Modesto	Stanislaus	CA	37.644481	-120.98043
95355 	Modesto	Modesto	Stanislaus	CA	37.673513	-120.95566
95356 	Modesto	Modesto	Stanislaus	CA	37.704138	-121.02187
95357 	Modesto	Modesto	Stanislaus	CA	37.667196	-120.9061
95358 	Modesto	Modesto	Stanislaus	CA	37.622898	-121.05181
95360 	Newman	Newman	Stanislaus	CA	37.312014	-121.0314
95361 	Oakdale	"Oakdale, Knights Ferry, Valley Home"	Stanislaus	CA	37.776528	-120.84756
95363 	Patterson	Patterson	Stanislaus	CA	37.477477	-121.14555
95365 	Planada	Planada	Merced	CA	37.297403	-120.32285
95366 	Ripon	Ripon	San Joaquin	CA	37.742895	-121.12546
95367 	Riverbank	Riverbank	Stanislaus	CA	37.731272	-120.94365
95368 	Salida	Salida	Stanislaus	CA	37.708727	-121.08928
95369 	Snelling	Snelling	Merced	CA	37.521832	-120.46555
95370 	Sonora	Sonora	Tuolumne	CA	37.995238	-120.3437
95372 	Soulsbyville	Soulsbyville	Tuolumne	CA	37.991855	-120.25829
95374 	Stevinson	Stevinson	Merced	CA	37.322619	-120.88299
95376 	Tracy	Tracy	San Joaquin	CA	37.728417	-121.42399
95377 	Tracy	Tracy	San Joaquin	CA	37.72374	-121.447131
95379 	Tuolumne	Tuolumne	Tuolumne	CA	37.957978	-120.2297
95380 	Turlock	Turlock	Stanislaus	CA	37.48858	-120.85196
95382 	Turlock	Turlock	Stanislaus	CA	37.523901	-120.8516
95383 	Twain Harte	Twain Harte	Tuolumne	CA	38.055888	-120.23002
95385 	Vernalis	"Vernalis, Tracy"	Stanislaus	CA	37.609781	-121.26784
95386 	Waterford	Waterford	Stanislaus	CA	37.645632	-120.73812
95387 	Westley	Westley (PO Box)	Stanislaus	CA	37.539768	-121.24702
95388 	Winton	Winton	Merced	CA	37.400193	-120.61094
95389 	Yosemite National Park	"Yosemite National Park, Tuolumne Meadows, Wawona"	Mariposa	CA	37.699662	-119.67529
95391 	Tracy	"Tracy, Mountain House, Mtn House"	San Joaquin	CA	37.76309121	-121.6053675
95401 	Santa Rosa	Santa Rosa	Sonoma	CA	38.440111	-122.74563
95403 	Santa Rosa	"Santa Rosa, Larkfield"	Sonoma	CA	38.480494	-122.74976
95404 	Santa Rosa	Santa Rosa	Sonoma	CA	38.457611	-122.69317
95405 	Santa Rosa	Santa Rosa	Sonoma	CA	38.438161	-122.67419
95407 	Santa Rosa	Santa Rosa	Sonoma	CA	38.404991	-122.7275
95409 	Santa Rosa	"Santa Rosa, Kenwood"	Sonoma	CA	38.460594	-122.6422
95410 	Albion	Albion	Mendocino	CA	39.216157	-123.71376
95412 	Annapolis	Annapolis	Sonoma	CA	38.717819	-123.32757
95415 	Boonville	Boonville	Mendocino	CA	39.026811	-123.38621
95420 	Caspar	Caspar	Mendocino	CA	39.365356	-123.80469
95421 	Cazadero	Cazadero	Sonoma	CA	38.562843	-123.16785
95422 	Clearlake	Clearlake	Lake	CA	38.956206	-122.63523
95423 	Clearlake Oaks	"Clearlake Oaks, Clearlake Oks"	Lake	CA	39.037173	-122.65445
95425 	Cloverdale	Cloverdale	Sonoma	CA	38.795668	-122.997
95426 	Cobb	Cobb (PO Box)	Lake	CA	38.835146	-122.72234
95427 	Comptche	Comptche	Mendocino	CA	39.240872	-123.54765
95428 	Covelo	Covelo	Mendocino	CA	39.825781	-123.23026
95431 	Eldridge	Eldridge (PO Box)	Sonoma	CA	38.347913	-122.51753
95432 	Elk	Elk	Mendocino	CA	39.103897	-123.64617
95435 	Finley	Finley (PO Box)	Lake	CA	39.00686	-122.859625
95436 	Forestville	Forestville	Sonoma	CA	38.495857	-122.90636
95437 	Fort Bragg	Fort Bragg	Mendocino	CA	39.43695	-123.76087
95439 	Fulton	Fulton	Sonoma	CA	38.494643	-122.77226
95441 	Geyserville	Geyserville	Sonoma	CA	38.710228	-122.95704
95442 	Glen Ellen	Glen Ellen	Sonoma	CA	38.367948	-122.52468
95443 	Glenhaven	Glenhaven	Lake	CA	39.03276	-122.74082
95444 	Graton	Graton	Sonoma	CA	38.434663	-122.8689
95445 	Gualala	Gualala	Mendocino	CA	38.813417	-123.55762
95446 	Guerneville	Guerneville	Sonoma	CA	38.509737	-123.00084
95448 	Healdsburg	Healdsburg	Sonoma	CA	38.614088	-122.87626
95449 	Hopland	Hopland	Mendocino	CA	38.955142	-123.08125
95450 	Jenner	Jenner	Sonoma	CA	38.506229	-123.22938
95451 	Kelseyville	Kelseyville	Lake	CA	38.939725	-122.78548
95452 	Kenwood	Kenwood	Sonoma	CA	38.414061	-122.54668
95453 	Lakeport	Lakeport	Lake	CA	39.051698	-122.92071
95454 	Laytonville	Laytonville	Mendocino	CA	39.745588	-123.5223
95456 	Littleriver	"Little River, Littleriver"	Mendocino	CA	39.268774	-123.75568
95457 	Lower Lake	Lower Lake	Lake	CA	38.911393	-122.599
95458 	Lucerne	Lucerne	Lake	CA	39.090421	-122.78972
95459 	Manchester	Manchester	Mendocino	CA	38.996389	-123.66468
95460 	Mendocino	Mendocino	Mendocino	CA	39.311858	-123.79166
95461 	Middletown	"Middletown, Loch Lomond"	Lake	CA	38.791139	-122.61069
95462 	Monte Rio	"Monte Rio, Russian River, Russian River Mdws"	Sonoma	CA	38.471368	-123.01469
95464 	Nice	Nice	Lake	CA	39.12558	-122.84653
95465 	Occidental	Occidental	Sonoma	CA	38.409993	-122.98347
95466 	Philo	Philo	Mendocino	CA	39.089273	-123.50186
95467 	Hidden Valley Lake	Hidden Valley Lake	Lake	CA	38.80357288	-122.5406603
95468 	Point Arena	Point Arena	Mendocino	CA	38.898385	-123.65746
95469 	Potter Valley	Potter Valley	Lake	CA	39.383027	-123.07856
95470 	Redwood Valley	Redwood Valley	Mendocino	CA	39.285782	-123.22064
95471 	Rio Nido	Rio Nido (PO Box)	Sonoma	CA	38.522499	-122.97967
95472 	Sebastopol	"Sebastopol, Freestone"	Sonoma	CA	38.393314	-122.83666
95476 	Sonoma	Sonoma	Sonoma	CA	38.277147	-122.47058
95482 	Ukiah	Ukiah	Mendocino	CA	39.154946	-123.20088
95485 	Upper Lake	Upper Lake	Lake	CA	39.172397	-122.90474
95488 	Westport	Westport	Mendocino	CA	39.727052	-123.79238
95490 	Willits	Willits	Mendocino	CA	39.451662	-123.37285
95492 	Windsor	Windsor	Sonoma	CA	38.54486	-122.80785
95493 	Witter Springs	"Witter Springs, Upper Lake"	Lake	CA	39.19607	-122.96649
95497 	The Sea Ranch	The Sea Ranch (PO Box)	Sonoma	CA	38.725628	-123.47625
95501 	Eureka	Eureka	Humboldt	CA	40.793739	-124.16102
95503 	Eureka	Eureka	Humboldt	CA	40.757091	-124.1513
95511 	Alderpoint	Alderpoint	Humboldt	CA	40.169518	-123.60216
95519 	Mckinleyville	Mckinleyville	Humboldt	CA	40.963482	-124.07286
95521 	Arcata	"Arcata, Mc Kinleyville"	Humboldt	CA	40.867469	-124.07519
95524 	Bayside	Bayside	Humboldt	CA	40.822884	-124.06711
95525 	Blue Lake	Blue Lake	Humboldt	CA	40.907437	-123.88348
95526 	Bridgeville	"Bridgeville, Mad River, Ruth"	Humboldt	CA	40.413386	-123.53267
95527 	Burnt Ranch	Burnt Ranch	Trinity	CA	40.877334	-123.45661
95528 	Carlotta	Carlotta	Humboldt	CA	40.489925	-123.97132
95531 	Crescent City	Crescent City	Del Norte	CA	41.782681	-124.16703
95536 	Ferndale	Ferndale	Humboldt	CA	40.561448	-124.25781
95540 	Fortuna	Fortuna	Humboldt	CA	40.583488	-124.14367
95542 	Garberville	Garberville	Humboldt	CA	40.0985	-123.80654
95543 	Gasquet	Gasquet	Del Norte	CA	41.888557	-123.80079
95546 	Hoopa	Hoopa	Humboldt	CA	41.161505	-123.72444
95547 	Hydesville	Hydesville	Humboldt	CA	40.546202	-124.08412
95548 	Klamath	Klamath	Del Norte	CA	41.51823	-124.03075
95549 	Kneeland	Kneeland	Humboldt	CA	40.691578	-123.87189
95550 	Korbel	Korbel	Humboldt	CA	40.766645	-123.83488
95551 	Loleta	Loleta	Humboldt	CA	40.659753	-124.22153
95552 	Mad River	Mad River	Trinity	CA	40.390478	-123.41309
95553 	Miranda	Miranda (PO Box)	Humboldt	CA	40.210793	-123.86447
95554 	Myers Flat	Myers Flat	Humboldt	CA	40.2959	-123.77902
95555 	Orick	Orick	Humboldt	CA	41.296122	-124.05351
95556 	Orleans	Orleans (PO Box)	Humboldt	CA	41.300573	-123.54411
95558 	Petrolia	Petrolia	Humboldt	CA	40.272963	-124.21494
95560 	Redway	Redway	Humboldt	CA	40.131417	-123.85855
95562 	Rio Dell	Rio Dell	Humboldt	CA	40.494813	-124.11637
95563 	Salyer	Salyer (PO Box)	Humboldt	CA	40.89197	-123.56149
95564 	Samoa	Samoa	Humboldt	CA	40.79348	-124.19929
95565 	Scotia	Scotia	Humboldt	CA	40.459978	-124.06059
95567 	Smith River	Smith River	Del Norte	CA	41.949739	-124.15098
95569 	Redcrest	Redcrest	Humboldt	CA	40.35983	-123.87105
95570 	Trinidad	Trinidad	Humboldt	CA	41.081726	-124.13112
95573 	Willow Creek	Willow Creek	Humboldt	CA	40.945039	-123.65806
95585 	Leggett	Leggett	Mendocino	CA	39.860285	-123.71685
95589 	Whitethorn	Whitethorn	Humboldt	CA	40.033316	-124.02379
95602 	Auburn	Auburn	Placer	CA	38.976837	-121.09142
95603 	Auburn	Auburn	Placer	CA	38.909605	-121.07971
95605 	West Sacramento	"West Sacramento, Broderick, Bryte"	Yolo	CA	38.592155	-121.52805
95607 	Capay	"Capay, Esparto"	Yolo	CA	38.706727	-122.125
95608 	Carmichael	Carmichael	Sacramento	CA	38.628371	-121.32702
95610 	Citrus Heights	Citrus Heights	Sacramento	CA	38.696912	-121.27125
95612 	Clarksburg	Clarksburg	Yolo	CA	38.383366	-121.57819
95614 	Cool	Cool	El Dorado	CA	38.880294	-120.97426
95615 	Courtland	Courtland	Sacramento	CA	38.333568	-121.54853
95616 	Davis	Davis	Yolo	CA	38.549256	-121.73655
95618 	El Macero	"Davis, El Macero"	Yolo	CA	38.546306	-121.68682
95619 	Diamond Springs	Diamond Springs	El Dorado	CA	38.689067	-120.82071
95620 	Dixon	"Dixon, Liberty Farms"	Solano	CA	38.427208	-121.81348
95621 	Citrus Heights	Citrus Heights	Sacramento	CA	38.695252	-121.3081
95623 	El Dorado	El Dorado	El Dorado	CA	38.639643	-120.84556
95624 	Elk Grove	Elk Grove	Sacramento	CA	38.421068	-121.36059
95626 	Elverta	Elverta	Sacramento	CA	38.727451	-121.45433
95627 	Esparto	Esparto	Yolo	CA	38.744062	-121.99929
95628 	Fair Oaks	Fair Oaks	Sacramento	CA	38.654803	-121.26529
95629 	Fiddletown	Fiddletown	Amador	CA	38.527556	-120.69292
95630 	Folsom	Folsom	Sacramento	CA	38.672127	-121.15783
95631 	Foresthill	Foresthill	Placer	CA	39.033312	-120.82172
95632 	Galt	Galt	Sacramento	CA	38.267544	-121.29723
95633 	Garden Valley	Garden Valley	El Dorado	CA	38.839773	-120.82881
95634 	Georgetown	Georgetown	El Dorado	CA	38.930207	-120.78557
95635 	Greenwood	Greenwood	El Dorado	CA	38.919588	-120.90406
95636 	Grizzly Flats	Grizzly Flats	El Dorado	CA	38.634753	-120.53353
95637 	Guinda	Guinda	Yolo	CA	38.830508	-122.19944
95638 	Herald	Herald	Sacramento	CA	38.317665	-121.16166
95639 	Hood	Hood (PO Box)	Sacramento	CA	38.367276	-121.51487
95640 	Ione	Ione	Amador	CA	38.346132	-120.94516
95641 	Isleton	Isleton	Sacramento	CA	38.161756	-121.60428
95642 	Jackson	Jackson	Amador	CA	38.359772	-120.75324
95645 	Knights Landing	Knights Landing	Sutter	CA	38.851198	-121.73354
95648 	Lincoln	Lincoln	Placer	CA	38.902873	-121.29795
95650 	Loomis	Loomis	Placer	CA	38.817508	-121.17225
95651 	Lotus	Lotus	El Dorado	CA	38.817357	-120.92213
95652 	Mcclellan AFB	Mcclellan	Sacramento	CA	38.666653	-121.389613
95653 	Madison	Madison (PO Box)	Yolo	CA	38.678663	-121.96907
95655 	Mather	Mather	Sacramento	CA	38.558073	-121.28737
95658 	Newcastle	Newcastle	Placer	CA	38.87672	-121.14213
95659 	Nicolaus	"Nicolaus, East Nicolaus, Trowbridge"	Sutter	CA	38.868919	-121.56398
95660 	North Highlands	North Highlands	Sacramento	CA	38.676103	-121.37656
95661 	Roseville	Roseville	Placer	CA	38.731976	-121.2531
95662 	Orangevale	Orangevale	Sacramento	CA	38.682803	-121.2231
95663 	Penryn	Penryn	Placer	CA	38.859227	-121.17565
95664 	Pilot Hill	Pilot Hill	El Dorado	CA	38.811695	-121.02427
95665 	Pine Grove	Pine Grove	Amador	CA	38.40097	-120.64952
95666 	Pioneer	Pioneer	Amador	CA	38.529753	-120.41411
95667 	Placerville	"Placerville, Kelsey"	El Dorado	CA	38.724682	-120.79533
95668 	Pleasant Grove	"Pleasant Grove, Pleasant Grv"	Sutter	CA	38.8323	-121.51661
95669 	Plymouth	Plymouth	Amador	CA	38.480569	-120.86895
95670 	Rancho Cordova	"Rancho Cordova, Gold River"	Sacramento	CA	38.605355	-121.28247
95672 	Rescue	Rescue	El Dorado	CA	38.71203	-121.0023
95673 	Rio Linda	Rio Linda	Sacramento	CA	38.688069	-121.44874
95674 	Rio Oso	Rio Oso	Sutter	CA	38.961976	-121.48166
95675 	River Pines	"River Pines, Mount Aukum (PO Box)"	Amador	CA	38.545656	-120.74287
95677 	Rocklin	Rocklin	Placer	CA	38.789165	-121.23825
95678 	Roseville	Roseville	Placer	CA	38.752434	-121.28933
95681 	Sheridan	Sheridan	Placer	CA	38.997612	-121.37967
95682 	Shingle Springs	"Shingle Springs, Cameron Park, Latrobe"	El Dorado	CA	38.641158	-120.97109
95683 	Sloughhouse	"Sloughhouse, Rancho Murieta"	Sacramento	CA	38.492811	-121.10036
95684 	Somerset	"Somerset, Fair Play"	El Dorado	CA	38.60766	-120.5937
95685 	Sutter Creek	Sutter Creek	Amador	CA	38.394464	-120.79015
95686 	Thornton	Thornton (PO Box)	San Joaquin	CA	38.228976	-121.44032
95687 	Vacaville	Vacaville	Solano	CA	38.34401	-121.95333
95688 	Vacaville	Vacaville	Solano	CA	38.380528	-121.99192
95689 	Volcano	Volcano	Amador	CA	38.473857	-120.59421
95690 	Walnut Grove	Walnut Grove	Sacramento	CA	38.240477	-121.56507
95691 	West Sacramento	West Sacramento	Yolo	CA	38.569193	-121.54496
95692 	Wheatland	Wheatland	Yuba	CA	39.030716	-121.43497
95693 	Wilton	Wilton	Sacramento	CA	38.382367	-121.23708
95694 	Winters	Winters	Yolo	CA	38.537434	-121.97757
95695 	Woodland	Woodland	Yolo	CA	38.697238	-121.80944
95697 	Yolo	Yolo (PO Box)	Yolo	CA	38.751038	-121.832156
95699 	Drytown	"Drytown, Sutter Creek (PO Box)"	Amador	CA	38.437001	-120.845706
95701 	Alta	Alta (PO Box)	Placer	CA	39.217668	-120.78346
95703 	Applegate	Applegate	Placer	CA	38.995732	-120.99703
95709 	Camino	Camino	El Dorado	CA	38.748112	-120.67463
95713 	Colfax	"Colfax, Eden Valley, Iowa Hill"	Placer	CA	39.092062	-120.93471
95714 	Dutch Flat	Dutch Flat (PO Box)	Placer	CA	39.204434	-120.83816
95722 	Meadow Vista	Meadow Vista	Placer	CA	39.005098	-121.01891
95726 	Pollock Pines	"Pollock Pines, Pacific House"	El Dorado	CA	38.749713	-120.53386
95728 	Soda Springs	Soda Springs (PO Box)	Nevada	CA	39.311156	-120.41039
95736 	Weimar	Weimar (PO Box)	Placer	CA	39.01004	-120.97814
95742 	Rancho Cordova	Rancho Cordova	Sacramento	CA	38.607756	-121.18367
95746 	Granite Bay	"Granite Bay, Roseville"	Placer	CA	38.743811	-121.19013
95747 	Roseville	Roseville	Placer	CA	38.768829	-121.33629
95757 	Elk Grove	Elk Grove	Sacramento	CA	38.34331536	-121.433668
95758 	Elk Grove	Elk Grove	Sacramento	CA	38.406432	-121.43673
95762 	El Dorado Hills	"El Dorado Hills, Folsom"	El Dorado	CA	38.684324	-121.06879
95765 	Rocklin	Rocklin	Placer	CA	38.817993	-121.2631
95776 	Woodland	Woodland	Yolo	CA	38.681254	-121.74189
95811 	Sacramento	Sacramento	Sacramento	CA	38.58724035	-121.4852568
95814 	Sacramento	Sacramento	Sacramento	CA	38.580255	-121.49125
95815 	Sacramento	Sacramento	Sacramento	CA	38.611854	-121.44553
95816 	Sacramento	Sacramento	Sacramento	CA	38.571661	-121.46827
95817 	Sacramento	Sacramento	Sacramento	CA	38.551106	-121.45996
95818 	Sacramento	Sacramento	Sacramento	CA	38.556576	-121.49285
95819 	Sacramento	Sacramento	Sacramento	CA	38.568855	-121.44099
95820 	Sacramento	Sacramento	Sacramento	CA	38.535795	-121.44663
95821 	Sacramento	Sacramento	Sacramento	CA	38.623304	-121.38181
95822 	Sacramento	Sacramento	Sacramento	CA	38.51394	-121.49201
95823 	Sacramento	Sacramento	Sacramento	CA	38.477508	-121.44561
95824 	Sacramento	Sacramento	Sacramento	CA	38.518356	-121.44378
95825 	Sacramento	Sacramento	Sacramento	CA	38.594205	-121.40726
95826 	Sacramento	Sacramento	Sacramento	CA	38.550098	-121.37492
95827 	Sacramento	Sacramento	Sacramento	CA	38.566506	-121.32515
95828 	Sacramento	Sacramento	Sacramento	CA	38.484747	-121.4024
95829 	Sacramento	Sacramento	Sacramento	CA	38.476196	-121.34715
95830 	Sacramento	Sacramento	Sacramento	CA	38.498156	-121.2651
95831 	Sacramento	Sacramento	Sacramento	CA	38.494971	-121.53059
95832 	Sacramento	Sacramento	Sacramento	CA	38.464667	-121.49643
95833 	Sacramento	Sacramento	Sacramento	CA	38.616891	-121.49623
95834 	Sacramento	Sacramento	Sacramento	CA	38.642805	-121.50466
95835 	Sacramento	Sacramento	Sacramento	CA	38.664824	-121.52061
95837 	Sacramento	Sacramento	Sacramento	CA	38.700244	-121.60207
95838 	Sacramento	Sacramento	Sacramento	CA	38.641223	-121.4417
95841 	Sacramento	Sacramento	Sacramento	CA	38.66152	-121.34361
95842 	Sacramento	Sacramento	Sacramento	CA	38.687718	-121.349
95843 	Antelope	"Antelope, Sacramento"	Sacramento	CA	38.716874	-121.3698
95864 	Sacramento	Sacramento	Sacramento	CA	38.587805	-121.37809
95901 	Marysville	"Marysville, Linda, Loma Rica"	Yuba	CA	39.15973	-121.53735
95903 	Beale AFB	"Beale Afb, Marysville"	Yuba	CA	39.125997	-121.36637
95912 	Arbuckle	"Arbuckle, College City"	Colusa	CA	38.97159	-122.02725
95914 	Bangor	Bangor	Butte	CA	39.425854	-121.35852
95916 	Berry Creek	Berry Creek	Butte	CA	39.661519	-121.38193
95917 	Biggs	Biggs	Butte	CA	39.413477	-121.71162
95918 	Browns Valley	Browns Valley	Yuba	CA	39.282171	-121.34733
95919 	Brownsville	Brownsville	Yuba	CA	39.453457	-121.26543
95920 	Butte City	Butte City	Glenn	CA	39.44223	-121.95216
95922 	Camptonville	Camptonville	Sierra	CA	39.469943	-121.07321
95926 	Chico	Chico	Butte	CA	39.745973	-121.84259
95928 	Chico	Chico	Butte	CA	39.720955	-121.81888
95932 	Colusa	Colusa	Colusa	CA	39.254875	-122.04572
95934 	Crescent Mills	Crescent Mills	Plumas	CA	40.074042	-120.93973
95935 	Dobbins	Dobbins	Yuba	CA	39.381883	-121.21763
95937 	Dunnigan	Dunnigan (PO Box)	Yolo	CA	38.931025	-121.94518
95938 	Durham	Durham	Butte	CA	39.624259	-121.79152
95939 	Elk Creek	Elk Creek	Glenn	CA	39.535446	-122.57667
95941 	Forbestown	Forbestown	Butte	CA	39.51642	-121.26853
95942 	Forest Ranch	"Forest Ranch, Butte Meadows"	Butte	CA	40.044865	-121.59415
95943 	Glenn	Glenn	Glenn	CA	39.605289	-122.03231
95945 	Grass Valley	Grass Valley	Nevada	CA	39.202725	-121.02076
95946 	Penn Valley	Penn Valley	Nevada	CA	39.207828	-121.20021
95947 	Greenville	Greenville	Plumas	CA	40.144573	-120.88311
95948 	Gridley	Gridley	Butte	CA	39.35217	-121.71129
95949 	Grass Valley	Grass Valley	Nevada	CA	39.13255	-121.0981
95950 	Grimes	Grimes (PO Box)	Colusa	CA	39.070128	-121.8981
95951 	Hamilton City	Hamilton City (PO Box)	Glenn	CA	39.738889	-122.01675
95953 	Live Oak	Live Oak	Sutter	CA	39.25209	-121.69439
95954 	Magalia	Magalia	Butte	CA	39.888074	-121.59048
95955 	Maxwell	Maxwell (PO Box)	Colusa	CA	39.283329	-122.20206
95956 	Meadow Valley	Meadow Valley (PO Box)	Plumas	CA	39.93935	-121.06047
95957 	Meridian	Meridian	Sutter	CA	39.070323	-121.83065
95959 	Nevada City	Nevada City	Nevada	CA	39.299405	-120.95144
95960 	North San Juan	North San Juan	Nevada	CA	39.396152	-121.08227
95961 	Olivehurst	"Olivehurst, Arboga, Plumas Lake, West Linda"	Yuba	CA	39.089929	-121.55053
95962 	Oregon House	Oregon House	Yuba	CA	39.355688	-121.2548
95963 	Orland	Orland	Glenn	CA	39.760968	-122.218
95965 	Oroville	"Oroville, Butte Valley, Pulga, Yankee Hill"	Butte	CA	39.558586	-121.58923
95966 	Oroville	Oroville	Butte	CA	39.491076	-121.49468
95968 	Palermo	Palermo	Butte	CA	39.434644	-121.55043
95969 	Paradise	Paradise	Butte	CA	39.750422	-121.61026
95970 	Princeton	Princeton	Glenn	CA	39.415041	-122.02487
95971 	Quincy	"Quincy, Spring Garden"	Plumas	CA	39.957324	-120.98366
95973 	Chico	"Chico, Cohasset"	Butte	CA	39.793465	-121.87946
95975 	Rough And Ready	"Rough And Ready, Rough Ready"	Nevada	CA	39.224179	-121.14539
95977 	Smartville	"Smartsville, Big Oak Valley"	Yuba	CA	39.19322	-121.28975
95979 	Stonyford	Stonyford	Colusa	CA	39.331444	-122.47943
95982 	Sutter	Sutter	Sutter	CA	39.16855	-121.76465
95983 	Taylorsville	Taylorsville	Plumas	CA	40.06686	-120.77442
95987 	Williams	Williams	Colusa	CA	39.139543	-122.20563
95988 	Willows	Willows	Glenn	CA	39.499754	-122.20773
95991 	Yuba City	Yuba City	Sutter	CA	39.114138	-121.6196
95993 	Yuba City	Yuba City	Sutter	CA	39.109272	-121.68033
96001 	Redding	Redding	Shasta	CA	40.56816	-122.41519
96002 	Redding	Redding	Shasta	CA	40.539302	-122.33279
96003 	Redding	Redding	Shasta	CA	40.641389	-122.34206
96006 	Adin	Adin	Modoc	CA	41.190742	-120.90294
96007 	Anderson	Anderson	Shasta	CA	40.45453	-122.31101
96008 	Bella Vista	Bella Vista	Shasta	CA	40.732501	-122.11264
96009 	Bieber	Bieber (PO Box)	Lassen	CA	41.119727	-121.1362
96013 	Burney	Burney	Shasta	CA	40.926289	-121.68452
96015 	Canby	Canby	Modoc	CA	41.425912	-120.90316
96016 	Cassel	Cassel	Shasta	CA	40.929301	-121.55711
96019 	Shasta Lake	"Shasta Lake, Central Valley"	Shasta	CA	40.682393	-122.36824
96020 	Chester	Chester	Plumas	CA	40.289788	-121.23263
96021 	Corning	Corning	Tehama	CA	39.918271	-122.21393
96022 	Cottonwood	Cottonwood	Tehama	CA	40.360583	-122.33544
96023 	Dorris	Dorris	Siskiyou	CA	41.963883	-121.89165
96024 	Douglas City	Douglas City	Trinity	CA	40.606673	-122.92335
96025 	Dunsmuir	Dunsmuir	Siskiyou	CA	41.221077	-122.28003
96027 	Etna	"Etna, Sawyers Bar"	Siskiyou	CA	41.414707	-122.96832
96028 	Fall River Mills	Fall River Mills	Shasta	CA	41.056097	-121.49021
96032 	Fort Jones	Fort Jones	Siskiyou	CA	41.615475	-122.87744
96033 	French Gulch	French Gulch	Shasta	CA	40.736679	-122.61121
96034 	Gazelle	Gazelle	Siskiyou	CA	41.441194	-122.64688
96035 	Gerber	Gerber	Tehama	CA	40.039257	-122.16555
96037 	Greenview	Greenview (PO Box)	Siskiyou	CA	41.53101	-122.95666
96038 	Grenada	Grenada	Siskiyou	CA	41.604392	-122.52666
96039 	Happy Camp	Happy Camp	Siskiyou	CA	41.82087	-123.43126
96040 	Hat Creek	Hat Creek	Shasta	CA	40.788512	-121.47668
96041 	Hayfork	Hayfork	Trinity	CA	40.524496	-123.18307
96044 	Hornbrook	Hornbrook	Siskiyou	CA	41.925752	-122.52253
96046 	Hyampom	Hyampom (PO Box)	Trinity	CA	40.639108	-123.47525
96047 	Igo	"Igo, Ono"	Shasta	CA	40.472993	-122.63707
96048 	Junction City	"Junction City, Helena"	Trinity	CA	40.850776	-122.92043
96050 	Klamath River	"Klamath River, Horse Creek"	Siskiyou	CA	41.831947	-122.9206
96051 	Lakehead	Lakehead	Shasta	CA	40.939342	-122.42246
96052 	Lewiston	Lewiston	Trinity	CA	40.743423	-122.81414
96055 	Los Molinos	Los Molinos	Tehama	CA	40.041399	-122.09793
96056 	Mcarthur	"Mcarthur, Little Valley"	Lassen	CA	41.114424	-121.332
96057 	Mccloud	Mccloud	Siskiyou	CA	41.263103	-122.10297
96058 	Macdoel	Macdoel	Siskiyou	CA	41.790562	-121.94214
96059 	Manton	Manton	Tehama	CA	40.437443	-121.84678
96062 	Millville	Millville	Shasta	CA	40.577799	-122.10148
96064 	Montague	Montague	Siskiyou	CA	41.736424	-122.40008
96065 	Montgomery Creek	Montgomery Creek	Shasta	CA	40.876184	-121.88975
96067 	Mount Shasta	Mount Shasta	Siskiyou	CA	41.317771	-122.31207
96069 	Oak Run	Oak Run	Shasta	CA	40.705474	-122.021
96073 	Palo Cedro	Palo Cedro	Shasta	CA	40.562648	-122.2255
96074 	Paskenta	Paskenta (PO Box)	Tehama	CA	39.878018	-122.57972
96075 	Paynes Creek	Paynes Creek	Tehama	CA	40.338253	-121.84025
96080 	Red Bluff	Red Bluff	Tehama	CA	40.183837	-122.24074
96084 	Round Mountain	"Round Mountain, Round Mtn (PO Box)"	Shasta	CA	40.871548	-121.98807
96086 	Seiad Valley	Seiad Valley	Siskiyou	CA	41.86235	-123.24091
96087 	Shasta	Shasta (PO Box)	Shasta	CA	40.608728	-122.51427
96088 	Shingletown	Shingletown	Shasta	CA	40.504853	-121.83501
96090 	Tehama	Tehama (PO Box)	Tehama	CA	40.024337	-122.12378
96091 	Trinity Center	"Trinity Center, Trinity Ctr"	Trinity	CA	41.004651	-122.71541
96092 	Vina	Vina (PO Box)	Tehama	CA	39.941595	-122.03746
96093 	Weaverville	Weaverville (PO Box)	Trinity	CA	40.734483	-122.93982
96094 	Weed	"Weed, Edgewood, Hammond Ranch"	Siskiyou	CA	41.460403	-122.38544
96096 	Whitmore	Whitmore	Shasta	CA	40.63446	-121.91202
96097 	Yreka	Yreka	Siskiyou	CA	41.749249	-122.64479
96101 	Alturas	Alturas	Modoc	CA	41.439363	-120.58771
96103 	Blairsden-Graeagle	"Blairsden-graeagle, Blairsden, Cromberg"	Plumas	CA	39.779486	-120.64058
96104 	Cedarville	Cedarville	Modoc	CA	41.527226	-120.13826
96105 	Chilcoot	Chilcoot	Plumas	CA	39.862832	-120.17303
96106 	Clio	Clio (PO Box)	Plumas	CA	39.743835	-120.58114
96107 	Coleville	Coleville	Mono	CA	38.475853	-119.49014
96109 	Doyle	Doyle	Lassen	CA	40.030098	-120.11304
96113 	Herlong	Herlong (PO Box)	Lassen	CA	40.158794	-120.18597
96114 	Janesville	Janesville	Lassen	CA	40.295652	-120.51775
96118 	Loyalton	Loyalton	Sierra	CA	39.663256	-120.24835
96120 	Markleeville	"Markleeville, Hope Valley"	Alpine	CA	38.76467	-119.85236
96121 	Milford	Milford	Plumas	CA	40.169038	-120.37815
96122 	Portola	Portola	Plumas	CA	39.801047	-120.48359
96124 	Calpine	"Calpine, Sattley"	Sierra	CA	39.663242	-120.43806
96125 	Sierra City	Sierra City	Sierra	CA	39.598792	-120.63432
96128 	Standish	Standish	Lassen	CA	40.34863	-120.4065
96130 	Susanville	Susanville	Lassen	CA	40.474951	-120.67685
96134 	Tulelake	"Tulelake, Newell, Tionesta"	Siskiyou	CA	41.874847	-121.43738
96137 	Westwood	"Westwood, Lake Almanor"	Lassen	CA	40.290007	-121.05272
96140 	Carnelian Bay	Carnelian Bay (PO Box)	Placer	CA	39.223151	-120.08627
96141 	Homewood	Homewood (PO Box)	Placer	CA	39.093271	-120.16325
96142 	Tahoma	Tahoma (PO Box)	El Dorado	CA	39.037696	-120.12438
96143 	Kings Beach	Kings Beach (PO Box)	Placer	CA	39.241961	-120.02809
96145 	Tahoe City	"Tahoe City,  Alpine Meadows (PO Box)"	Placer	CA	39.177383	-120.14607
96146 	Olympic Valley	"Olympic Valley, Alpine Meadows"	Placer	CA	39.180983	-120.21804
96148 	Tahoe Vista	Tahoe Vista (PO Box)	Placer	CA	39.243877	-120.05437
96150 	South Lake Tahoe	"South Lake Tahoe, S Lake Tahoe"	El Dorado	CA	38.908741	-120.00992
96161 	Truckee	"Truckee, Northstar"	Nevada	CA	39.339574	-120.22805